{
  "version": 0.6,
  "generator": "Overpass API 0.7.61.5 4133829e",
  "osm3s": {
    "timestamp_osm_base": "2023-11-17T19:44:42Z",
    "timestamp_areas_base": "2023-11-17T18:08:29Z",
    "copyright": "The data included in this document is from www.openstreetmap.org. The data is made available under ODbL."
  },
  "elements": [

{
  "type": "node",
  "id": 17193023,
  "lat": 49.5928616,
  "lon": 11.0056000,
  "tags": {
    "ele": "279",
    "license_plate_code": "ER",
    "name": "Erlangen",
    "name:ar": "إرلنغن",
    "name:de": "Erlangen",
    "name:en": "Erlangen",
    "name:hu": "Erlangen",
    "name:la": "Erlanga",
    "name:lt": "Erlangenas",
    "name:ru": "Эрланген",
    "name:sr": "Ерланген",
    "name:ta": "எர்லங்கன்",
    "name:zh-Hans": "埃尔朗根",
    "name:zh-Hant": "愛爾朗根",
    "openGeoDB:community_identification_number": "09562",
    "openGeoDB:is_in_loc_id": "164",
    "openGeoDB:license_plate_code": "ER",
    "openGeoDB:loc_id": "608",
    "place": "city",
    "population": "117466",
    "population:date": "2022-09-30",
    "ref:LOCODE": "DEERL",
    "source:population": "https://erlangen.de/aktuelles/bevoelkerung",
    "website": "https://www.erlangen.de/",
    "wikidata": "Q3126",
    "wikipedia": "de:Erlangen"
  }
},
{
  "type": "node",
  "id": 18318938,
  "lat": 52.1521636,
  "lon": 9.9513046,
  "tags": {
    "ele": "81",
    "name": "Hildesheim",
    "name:ar": "هلدسهايم",
    "name:de": "Hildesheim",
    "name:fa": "هلدس‌هایم",
    "name:hu": "Hildesheim",
    "name:ja": "ヒルデスハイム",
    "name:la": "Hildesia",
    "name:lt": "Hildesheimas",
    "name:nds": "Hilmessen",
    "name:ru": "Хильдесхайм",
    "name:sr": "Хилдесхајм",
    "place": "city",
    "population": "101744",
    "population:date": "2017",
    "ref:LOCODE": "DEHIL",
    "wikidata": "Q3185",
    "wikipedia": "de:Hildesheim"
  }
},
{
  "type": "node",
  "id": 20830918,
  "lat": 50.8323531,
  "lon": 12.9189140,
  "tags": {
    "ele": "296",
    "is_in": "Sachsen,Bundesrepublik Deutschland,Europe",
    "is_in:country_code": "DE",
    "is_in:iso_3166_2": "DE-SN",
    "name": "Chemnitz",
    "name:ar": "كيمنتس",
    "name:cs": "Saská Kamenice",
    "name:de": "Chemnitz",
    "name:el": "Κέμνιτς",
    "name:fa": "کمنیتس",
    "name:he": "קמניץ",
    "name:hsb": "Kamjenica",
    "name:hu": "Chemnitz",
    "name:ja": "ケムニッツ",
    "name:ko": "켐니츠",
    "name:la": "Chemnicium",
    "name:lt": "Chemnicas",
    "name:lv": "Kemnica",
    "name:ru": "Хемниц",
    "name:sk": "Kamenica",
    "name:sr": "Хемниц",
    "name:uk": "Хемніц",
    "old_name": "Karl-Marx-Stadt",
    "old_name:1953-1990": "Karl-Marx-Stadt",
    "openGeoDB:community_identification_number": "14161",
    "openGeoDB:license_plate_code": "C",
    "openGeoDB:loc_id": "499",
    "place": "city",
    "population": "243089",
    "ref:LOCODE": "DECHE",
    "wikidata": "Q2795",
    "wikipedia": "de:Chemnitz"
  }
},
{
  "type": "node",
  "id": 20833613,
  "lat": 51.0493286,
  "lon": 13.7381437,
  "tags": {
    "capital": "4",
    "ele": "112",
    "image": "File:Dresden-nightpanorama-dri.jpg",
    "name": "Dresden",
    "name:ar": "دريسدن",
    "name:az": "Drezden",
    "name:be": "Дрэздэн",
    "name:cs": "Drážďany",
    "name:de": "Dresden",
    "name:el": "Δρέσδη",
    "name:es": "Dresde",
    "name:fa": "درسدن",
    "name:fr": "Dresde",
    "name:he": "דרזדן",
    "name:hsb": "Drježdźany",
    "name:hu": "Drezda",
    "name:it": "Dresda",
    "name:ja": "ドレスデン",
    "name:ko": "드레스덴",
    "name:la": "Dresda",
    "name:lt": "Dresdenas",
    "name:lv": "Drēzdene",
    "name:mk": "Дрезден",
    "name:nds": "Dresden",
    "name:pl": "Drezno",
    "name:ro": "Dresda",
    "name:ru": "Дрезден",
    "name:sk": "Drážďany",
    "name:sr": "Дрезден",
    "name:szl": "Drezdno",
    "name:uk": "Дрезден",
    "name:ur": "ڈریسڈن",
    "name:zh": "德累斯顿",
    "name:zh-Hans": "德累斯顿",
    "name:zh-Hant": "德累斯頓",
    "openGeoDB:loc_id": "15827",
    "place": "city",
    "population": "557098",
    "ref:LOCODE": "DEDRS",
    "website": "https://www.dresden.de/",
    "wikidata": "Q1731",
    "wikipedia": "de:Dresden"
  }
},
{
  "type": "node",
  "id": 20833623,
  "lat": 53.5503410,
  "lon": 10.0006540,
  "tags": {
    "capital": "4",
    "ele": "6",
    "name": "Hamburg",
    "name:af": "Hamburg",
    "name:als": "Hamburg",
    "name:an": "Amburgo",
    "name:ar": "هامبورغ",
    "name:arc": "ܗܐܡܒܘܪܓ",
    "name:az": "Hamburq",
    "name:bar": "Hamburg",
    "name:be": "Гамбург",
    "name:bg": "Хамбург",
    "name:bn": "হামবুর্গ",
    "name:br": "Hamburg",
    "name:bs": "Hamburg",
    "name:ca": "Ciutat d'Hamburg",
    "name:cs": "Hamburk",
    "name:cy": "Hamburg",
    "name:da": "Hamborg",
    "name:de": "Hamburg",
    "name:dsb": "Hamburg",
    "name:el": "Αμβούργο",
    "name:en": "Hamburg",
    "name:eo": "Hamburgo",
    "name:es": "Hamburgo",
    "name:et": "Hamburg",
    "name:eu": "Hanburgo",
    "name:fa": "هامبورگ",
    "name:fi": "Hampuri",
    "name:fr": "Hambourg",
    "name:fur": "Amburc",
    "name:fy": "Hamboarch",
    "name:ga": "Hamburg",
    "name:gd": "Hamburg",
    "name:gl": "Hamburgo",
    "name:he": "המבורג",
    "name:hr": "Hamburg",
    "name:hsb": "Hamburg",
    "name:hu": "Hamburg",
    "name:hy": "Համբուրգ",
    "name:id": "Hamburg",
    "name:ie": "Hamburg",
    "name:io": "Hamburg",
    "name:is": "Hamborg",
    "name:it": "Amburgo",
    "name:ja": "ハンブルク",
    "name:jv": "Hamburg",
    "name:ka": "ჰამბურგი",
    "name:kn": "ಹಾಂಬುರ್ಕ",
    "name:ko": "함부르크",
    "name:ksh": "Hamborsch",
    "name:ku": "Hamburg",
    "name:la": "Hamburgum",
    "name:lb": "Hamburg",
    "name:lij": "Ambûrgo",
    "name:lt": "Hamburgas",
    "name:lv": "Hamburga",
    "name:mi": "Hamapaka",
    "name:mk": "Хамбург",
    "name:mr": "हांबुर्ग",
    "name:nan": "Hamburg",
    "name:nds": "Hamborg",
    "name:nds-nl": "Hambörg",
    "name:nl": "Hamburg",
    "name:nn": "Hamburg",
    "name:no": "Hamburg",
    "name:oc": "Amborg",
    "name:pam": "Hamburg",
    "name:pl": "Hamburg",
    "name:pt": "Hamburgo",
    "name:qu": "Hamburg",
    "name:rm": "Hamburg",
    "name:ro": "Hamburg",
    "name:ru": "Гамбург",
    "name:scn": "Amburgu",
    "name:sco": "Hamburgh",
    "name:short": "HH",
    "name:sk": "Hamburg",
    "name:sl": "Hamburg",
    "name:sq": "Hamburgu",
    "name:sr": "Хамбург",
    "name:sv": "Hamburg",
    "name:sw": "Hamburg",
    "name:szl": "Hamburg",
    "name:th": "ฮัมบูร์ก",
    "name:tr": "Hamburg",
    "name:tt": "Һамбург",
    "name:uk": "Гамбург",
    "name:ur": "ہم برک",
    "name:vec": "Anburgo",
    "name:vi": "Hamburg",
    "name:vo": "Hamburg",
    "name:xh": "Hamburg",
    "name:yi": "האמבורג",
    "name:yue": "漢堡",
    "name:zh": "汉堡",
    "name:zh-Hans": "汉堡",
    "name:zh-Hant": "漢堡",
    "official_status": "Land",
    "official_status:ar": "ولاية",
    "official_status:de": "Land",
    "official_status:en": "State",
    "official_status:ru": "земля",
    "place": "city",
    "population": "1812709",
    "ref": "HH",
    "ref:LOCODE": "DEHAM",
    "wikidata": "Q1055",
    "wikipedia": "de:Hamburg"
  }
},
{
  "type": "node",
  "id": 20953083,
  "lat": 50.9383610,
  "lon": 6.9599740,
  "tags": {
    "alt_name:gl": "Köln",
    "alt_name:la": "Colonia Claudia Ara Agrippinensium",
    "ele": "53",
    "loc_name": "Kölle",
    "name": "Köln",
    "name:af": "Keulen",
    "name:als": "Köln",
    "name:ar": "كولونيا",
    "name:bat-smg": "Kiolns",
    "name:be": "Кёльн",
    "name:bg": "Кьолн",
    "name:bs": "Köln",
    "name:ca": "Colònia",
    "name:cs": "Kolín nad Rýnem",
    "name:cy": "Cwlen",
    "name:da": "Köln",
    "name:de": "Köln",
    "name:dsb": "Köln",
    "name:el": "Κολωνία",
    "name:en": "Cologne",
    "name:eo": "Kolonjo",
    "name:es": "Colonia",
    "name:et": "Köln",
    "name:eu": "Kolonia",
    "name:fa": "کلن",
    "name:fi": "Köln",
    "name:fr": "Cologne",
    "name:fy": "Keulen",
    "name:ga": "Köln",
    "name:gl": "Colonia",
    "name:he": "קלן",
    "name:hi": "कलोन्",
    "name:hr": "Köln",
    "name:hu": "Köln",
    "name:ia": "Colonia",
    "name:id": "Köln",
    "name:io": "Köln",
    "name:is": "Köln",
    "name:it": "Colonia",
    "name:ja": "ケルン",
    "name:ka": "კელნი",
    "name:kn": "ಕಲೋನ್",
    "name:ko": "쾰른",
    "name:ksh": "Kölle",
    "name:ku": "Köln",
    "name:la": "Colonia Agrippina",
    "name:lb": "Köln",
    "name:li": "Kölle",
    "name:lt": "Kelnas",
    "name:lv": "Ķelne",
    "name:mk": "Келн",
    "name:mr": "क्योल्न",
    "name:ms": "Cologne",
    "name:nds": "Köln",
    "name:nl": "Keulen",
    "name:nn": "Köln",
    "name:no": "Köln",
    "name:oc": "Colonha",
    "name:pam": "Cologne",
    "name:pl": "Kolonia",
    "name:pt": "Colônia",
    "name:qu": "Köln",
    "name:ro": "Köln",
    "name:ru": "Кёльн",
    "name:scn": "Culonia",
    "name:sh": "Köln",
    "name:sk": "Kolín nad Rýnom",
    "name:sl": "Köln",
    "name:sq": "Këllni",
    "name:sr": "Келн",
    "name:sv": "Köln",
    "name:sw": "Köln",
    "name:th": "โคโลญ",
    "name:tl": "Cologne",
    "name:tr": "Köln",
    "name:tt": "Көлн",
    "name:uk": "Кельн",
    "name:ur": "کولون",
    "name:vec": "Cołogna",
    "name:vi": "Köln",
    "name:vo": "Köln",
    "name:wuu": "看勒尔",
    "name:yi": "קעלן",
    "name:yue": "古龍",
    "name:zh": "科隆",
    "name:zh-Hans": "科隆",
    "name:zh-Hant": "科隆",
    "name:zh_pinyin": "Kēlóng",
    "name:zu": "Köln",
    "old_name": "Cöln;Coellen",
    "openGeoDB:community_identification_number": "05315",
    "openGeoDB:license_plate_code": "K",
    "openGeoDB:loc_id": "417",
    "place": "city",
    "population": "1069200",
    "ref:LOCODE": "DECGN",
    "reg_name": "Kölle",
    "source:name": "Wikipedia",
    "website": "https://www.stadt-koeln.de/",
    "wikidata": "Q365",
    "wikipedia": "de:Köln"
  }
},
{
  "type": "node",
  "id": 20982927,
  "lat": 53.0758196,
  "lon": 8.8071646,
  "tags": {
    "capital": "4",
    "name": "Bremen",
    "name:ar": "بريمن",
    "name:be": "Брэмен",
    "name:bg": "Бремен",
    "name:cs": "Brémy",
    "name:de": "Bremen",
    "name:el": "Βρέμη",
    "name:en": "Bremen",
    "name:fa": "برمن",
    "name:fr": "Brême",
    "name:fy": "Bremen",
    "name:he": "ברמן",
    "name:hsb": "Bremy",
    "name:hu": "Bréma",
    "name:it": "Brema",
    "name:ja": "ブレーメン",
    "name:ka": "ბრემენი",
    "name:ko": "브레멘",
    "name:la": "Brema",
    "name:lt": "Brėmenas",
    "name:lv": "Brēmene",
    "name:mk": "Бремен",
    "name:nds": "Bremen",
    "name:oc": "Brèma",
    "name:pl": "Brema",
    "name:ru": "Бремен",
    "name:sc": "Brema",
    "name:sk": "Brémy",
    "name:sq": "Bremeni",
    "name:sr": "Бремен",
    "name:uk": "Бремен",
    "name:ur": "بریمین",
    "name:zh": "不来梅",
    "name:zh-Hans": "不来梅",
    "name:zh-Hant": "不來梅",
    "note": "Achtung! Die Verwaltungsgrenzen verlaufen NICHT an der coastline, sondern in der Weser. Amtliche Stadtgliederung beachten.",
    "official_name": "Freie Hansestadt Bremen",
    "official_name:ar": "مدينة بريمن الحرة الهانزية",
    "official_status": "Land",
    "official_status:ar": "ولاية",
    "official_status:de": "Land",
    "official_status:en": "State",
    "official_status:ru": "земля",
    "place": "city",
    "population": "551415",
    "ref:LOCODE": "DEBRE",
    "source:population": "http://www.statistik-bremen.de/aktuelle_statistiken/01b.htm, November 2014",
    "website": "https://www.bremen.de/",
    "wikidata": "Q24879",
    "wikipedia": "de:Bremen"
  }
},
{
  "type": "node",
  "id": 21315295,
  "lat": 51.5380394,
  "lon": 7.2199850,
  "tags": {
    "ele": "65",
    "name": "Herne",
    "name:ar": "هيرنه",
    "name:en": "Herne",
    "name:hu": "Herne",
    "name:la": "Herna",
    "name:ru": "Херне",
    "name:sr": "Херне",
    "place": "city",
    "population": "156449",
    "population:date": "2019-12-31",
    "source:population": "Statistisches Bundesamt",
    "website": "https://www.herne.de/",
    "wikidata": "Q2904",
    "wikipedia": "de:Herne"
  }
},
{
  "type": "node",
  "id": 21687149,
  "lat": 51.3406321,
  "lon": 12.3747329,
  "tags": {
    "ele": "118",
    "license_plate_code": "L",
    "loc_name": "Leipzsch",
    "name": "Leipzig",
    "name:ar": "لايبزيغ",
    "name:cs": "Lipsko",
    "name:de": "Leipzig",
    "name:el": "Λειψία",
    "name:fa": "لایپزیگ",
    "name:fr": "Leipzig",
    "name:hsb": "Lipsk",
    "name:hu": "Lipcse",
    "name:it": "Lipsia",
    "name:ja": "ライプツィヒ",
    "name:la": "Lipsia",
    "name:lat": "Lipsia",
    "name:lv": "Leipciga",
    "name:mk": "Лајпциг",
    "name:nds": "Lips",
    "name:pl": "Lipsk",
    "name:ro": "Leipzig",
    "name:ru": "Лейпциг",
    "name:sk": "Lipsko",
    "name:sr": "Лајпциг",
    "name:szl": "Lajpcik",
    "name:uk": "Лейпциг",
    "name:ur": "لائپزش",
    "name:zh": "莱比锡",
    "name:zh-Hans": "莱比锡",
    "name:zh-Hant": "萊比錫",
    "old_name:ro": "Lipsca",
    "openGeoDB:is_in_loc_id": "503",
    "openGeoDB:loc_id": "20112",
    "place": "city",
    "population": "596517",
    "ref:LOCODE": "DELEJ",
    "reg_name": "Leipzsch,LE",
    "telephone_area_code": "0341",
    "website": "https://www.leipzig.de/",
    "wikidata": "Q2079",
    "wikipedia": "de:Leipzig"
  }
},
{
  "type": "node",
  "id": 24487450,
  "lat": 54.3227085,
  "lon": 10.1355550,
  "tags": {
    "capital": "4",
    "name": "Kiel",
    "name:ar": "كيل",
    "name:be": "Кіль",
    "name:bg": "Кил",
    "name:de": "Kiel",
    "name:el": "Κίελο",
    "name:fa": "کیل",
    "name:is": "Kíl",
    "name:lt": "Kylis",
    "name:lv": "Ķīle",
    "name:mk": "Кил",
    "name:nds": "Kiel",
    "name:ru": "Киль",
    "name:uk": "Кіль",
    "name:ur": "کیل",
    "name:zh-Hans": "基尔",
    "name:zh-Hant": "基爾",
    "note": "admin_centre",
    "old_name:pl": "Chylonja;Chylonia;Kilonja",
    "place": "city",
    "population": "246306",
    "wikidata": "Q1707",
    "wikipedia": "de:Kiel"
  }
},
{
  "type": "node",
  "id": 25293125,
  "lat": 51.5142273,
  "lon": 7.4652789,
  "tags": {
    "ele": "86",
    "name": "Dortmund",
    "name:ar": "دورتمند",
    "name:br": "Dortmund",
    "name:de": "Dortmund",
    "name:el": "Ντόρτμουντ",
    "name:es": "Dortmund",
    "name:hu": "Dortmund",
    "name:ja": "ドルトムント",
    "name:la": "Tremonia",
    "name:mk": "Дортмунд",
    "name:nds": "Düörpm",
    "name:ro": "Dortmund",
    "name:ru": "Дортмунд",
    "name:sr": "Дортмунд",
    "name:uk": "Дортмунд",
    "name:ur": "ڈورٹمنڈ",
    "name:zh": "多特蒙德",
    "name:zh-Hant": "多特蒙德",
    "old_name:es": "Tremonia",
    "place": "city",
    "population": "600933",
    "website": "https://www.dortmund.de/",
    "wikidata": "Q1295",
    "wikipedia": "de:Dortmund"
  }
},
{
  "type": "node",
  "id": 25327151,
  "lat": 53.8664440,
  "lon": 10.6847380,
  "tags": {
    "ele": "13",
    "heritage": "1",
    "historic": "unesco world heritage",
    "name": "Lübeck",
    "name:ar": "لوبك",
    "name:cs": "Lubek",
    "name:da": "Lybæk",
    "name:de": "Lübeck",
    "name:en": "Lübeck",
    "name:eo": "Lubeko",
    "name:es": "Lubeca",
    "name:fa": "لوبک",
    "name:fi": "Lyypekki",
    "name:fr": "Lübeck",
    "name:hsb": "Lubica",
    "name:hu": "Lübeck",
    "name:it": "Lubecca",
    "name:ja": "リューベック",
    "name:la": "Lubeca",
    "name:lt": "Liubekas",
    "name:lv": "Lībeka",
    "name:nds": "Lübeck",
    "name:pl": "Lubeka",
    "name:ru": "Любек",
    "name:sq": "Lybeku",
    "name:sr": "Либек",
    "name:uk": "Любек",
    "name:ur": "لوبک",
    "nickname": "Hansestadt",
    "nickname:af": "Hansestad",
    "nickname:an": "Ciudat Hanseatica",
    "nickname:ar": "مدينة الهانزية",
    "nickname:ast": "Ciudá Hanseática",
    "nickname:az": "Hanzey şəhəri",
    "nickname:bar": "Hansestod",
    "nickname:be": "Ганзейскі горад",
    "nickname:be-tarask": "Ганзейскі горад",
    "nickname:ca": "ciutat hanseàtica",
    "nickname:cs": "hanzovní město",
    "nickname:da": "Hansestad",
    "nickname:de": "Hansestadt",
    "nickname:en": "Hanseatic city",
    "nickname:eo": "Hanso-urbo",
    "nickname:es": "ciudad hanseática",
    "nickname:et": "hansalinn",
    "nickname:eu": "Hansar Hiria",
    "nickname:fr": "ville hanséatique",
    "nickname:frr": "Hansestääd",
    "nickname:fy": "Hânzestêd",
    "nickname:gl": "Cidade Hanseática",
    "nickname:hsb": "hansowe město",
    "nickname:hu": "Hanza-város",
    "nickname:id": "Kota Hanseatik",
    "nickname:it": "città anseatica",
    "nickname:ja": "ハンザ都市",
    "nickname:jv": "Kota Hanseatik",
    "nickname:la": "urbs Hanseatica",
    "nickname:lb": "Hansestad",
    "nickname:lt": "Hanzos sąjungos miestas",
    "nickname:lv": "hanzas pilsēta",
    "nickname:mk": "Ханзин град",
    "nickname:nds": "Hansestadt",
    "nickname:nds-nl": "Hanzestad",
    "nickname:nl": "Hanzestad",
    "nickname:no": "Hansabyen",
    "nickname:pt": "Cidade Hanseática",
    "nickname:ro": "Oraș al Hansei",
    "nickname:ru": "Ганзе́йский го́род",
    "nickname:sc": "Tzitade Anseàtica",
    "nickname:sco": "Hanseatic ceety",
    "nickname:sk": "hanzové mesto",
    "nickname:sl": "hanzeatsko mesto",
    "nickname:th": "นครฮันเซอแห่ง",
    "nickname:vec": "sità anseatica",
    "nickname:vi": "thành phố Hanse",
    "nickname:yue": "漢莎城市",
    "nickname:zh": "汉萨同盟城市",
    "official_name": "Hansestadt Lübeck",
    "official_name:af": "Hansestad Lübeck",
    "official_name:an": "Ciudat Hanseatica de Lübeck",
    "official_name:ar": "مدينة لوبك الهانزية",
    "official_name:ast": "Ciudá Hanseática de Lübeck",
    "official_name:az": "Hanzey şəhəri Lübek",
    "official_name:bar": "Hansestod Lübeck",
    "official_name:be": "Ганзейскі горад Любек",
    "official_name:be-tarask": "Ганзейскі горад Любэк",
    "official_name:ca": "Ciutat Lliure i Hanseàtica de Lübeck",
    "official_name:cv": "Любек ханза хули",
    "official_name:da": "Hansestaden Lybæk",
    "official_name:de": "Hansestadt Lübeck",
    "official_name:en": "Hanseatic City of Lübeck",
    "official_name:eo": "Hanso-urbo Lubeko",
    "official_name:es": "Ciudad Hanseática de Lübeck",
    "official_name:et": "Hansalinn Lübeck",
    "official_name:eu": "Lübeckeko Hansar Hiria",
    "official_name:fy": "Hânzestêd Lübeck",
    "official_name:gl": "Cidade Hanseática de Lübeck",
    "official_name:hr": "Hanzeatski grad Lübeck",
    "official_name:hsb": "Hansowe město Lubica",
    "official_name:id": "Kota Hanseatik Lübeck",
    "official_name:it": "libera città anseatica di Lubecca",
    "official_name:ja": "ハンザ都市リューベック",
    "official_name:jv": "Kota Hanseatik Lübeck",
    "official_name:la": "Lubeca urbs Hansica",
    "official_name:lb": "Hansestad Lübeck",
    "official_name:mk": "Ханзин град Либек",
    "official_name:nds-nl": "Hanzestad Lubeek",
    "official_name:nl": "Hanzestad Lübeck",
    "official_name:no": "Hansestadt Lübeck",
    "official_name:pt": "Cidade Hanseática de Lübeck",
    "official_name:sco": "Hanseatic Ceety o Lübeck",
    "official_name:th": "นครฮันเซอแห่งลือเบค",
    "official_name:tr": "Hanseatik Dönemin Lübeck Şehri",
    "official_name:vi": "Thành phố Hanse Lübeck",
    "official_name:yue": "漢莎城市呂碧克",
    "official_name:zh": "汉萨同盟城市吕贝克",
    "place": "city",
    "population": "212958",
    "ref:LOCODE": "DELBC",
    "ref:whc": "272bis",
    "whc:criteria": "(iv)",
    "whc:inscription_date": "1987",
    "wikidata": "Q2843",
    "wikimedia_commons": "File:Panorama_Lübeck.jpg",
    "wikipedia": "de:Lübeck"
  }
},
{
  "type": "node",
  "id": 25738881,
  "lat": 49.7924500,
  "lon": 9.9329660,
  "tags": {
    "ele": "177",
    "name": "Würzburg",
    "name:ar": "فورتسبور",
    "name:bg": "Вюрцбург",
    "name:de": "Würzburg",
    "name:el": "Βύρτσμπουργκ",
    "name:es": "Wurzburgo",
    "name:fr": "Wurtzbourg",
    "name:frr": "Würzbörj",
    "name:he": "וירצבורג",
    "name:hu": "Würzburg",
    "name:ja": "ヴュルツブルク",
    "name:ko": "뷔르츠부르크",
    "name:la": "Herbipolis",
    "name:lt": "Viurcburgas",
    "name:pt": "Wurtzburgo",
    "name:ru": "Вюрцбург",
    "name:sr": "Вирцбург",
    "openGeoDB:community_identification_number": "09679",
    "openGeoDB:license_plate_code": "WÜ",
    "openGeoDB:loc_id": "273",
    "openGeoDB:type": "Kreis",
    "place": "city",
    "population": "124700",
    "ref:LOCODE": "DEWUE",
    "wikidata": "Q2999",
    "wikipedia": "de:Würzburg"
  }
},
{
  "type": "node",
  "id": 25763730,
  "lat": 51.4512830,
  "lon": 6.6284300,
  "tags": {
    "ele": "30",
    "name": "Moers",
    "name:de": "Moers",
    "name:hu": "Moers",
    "name:la": "Meursia",
    "name:nl": "Meurs",
    "name:ru": "Мёрс",
    "name:sr": "Морс",
    "name:uk": "Мерс",
    "openGeoDB:community_identification_number": "05170024",
    "openGeoDB:license_plate_code": "WES",
    "openGeoDB:loc_id": "21036",
    "openGeoDB:postal_codes": "47441,47443,47445,47447",
    "openGeoDB:telephone_area_code": "02841",
    "place": "city",
    "population": "105102",
    "ref:LOCODE": "DEMOS",
    "wikidata": "Q3132",
    "wikipedia": "de:Moers"
  }
},
{
  "type": "node",
  "id": 26373169,
  "lat": 50.7358510,
  "lon": 7.1006600,
  "tags": {
    "name": "Bonn",
    "name:ar": "بون",
    "name:br": "Bonn",
    "name:de": "Bonn",
    "name:el": "Βόννη",
    "name:hu": "Bonn",
    "name:ja": "ボン",
    "name:la": "Bonna",
    "name:oc": "Bonn",
    "name:ru": "Бонн",
    "name:sr": "Бон",
    "name:uk": "Бонн",
    "name:ur": "بونیم",
    "name:zh": "波恩",
    "official_name": "Bundesstadt Bonn",
    "openGeoDB:community_identification_number": "05314",
    "openGeoDB:license_plate_code": "BN",
    "openGeoDB:loc_id": "413",
    "place": "city",
    "population": "330224",
    "population:date": "2018-12-31",
    "ref:LOCODE": "DEBON",
    "source:name:oc": "Lo Congrès",
    "source:population": "http://www2.bonn.de/statistik/default.asp?2",
    "website": "https://www.bonn.de",
    "wikidata": "Q586",
    "wikipedia": "de:Bonn"
  }
},
{
  "type": "node",
  "id": 26769661,
  "lat": 49.1422910,
  "lon": 9.2186550,
  "tags": {
    "de:amtlicher_gemeindeschluessel": "08125",
    "ele": "157",
    "name": "Heilbronn",
    "name:ru": "Хайльбронн",
    "place": "city",
    "population": "118122",
    "ref:LOCODE": "DEHEN",
    "website": "https://www.heilbronn.de/",
    "wikidata": "Q715",
    "wikipedia": "de:Heilbronn"
  }
},
{
  "type": "node",
  "id": 27350363,
  "lat": 51.4582235,
  "lon": 7.0158171,
  "tags": {
    "ele": "116",
    "name": "Essen",
    "name:ar": "إسن",
    "name:bg": "Есен",
    "name:de": "Essen",
    "name:el": "Έσση",
    "name:fa": "اسن",
    "name:he": "אסן",
    "name:hu": "Essen",
    "name:ja": "エッセン",
    "name:ka": "ესენი",
    "name:kk": "Эссен",
    "name:ko": "에센",
    "name:ksh": "Äßße",
    "name:la": "Assindia",
    "name:li": "Esse",
    "name:lt": "Esenas",
    "name:lv": "Esene",
    "name:mr": "एसेन",
    "name:nds": "Essen",
    "name:ru": "Эссен",
    "name:sr": "Есен",
    "name:th": "เอสเซิน",
    "name:ug": "Ésén",
    "name:uk": "Ессен",
    "name:ur": "ایسن",
    "name:zh": "埃森",
    "name:zh-Hans": "埃森",
    "name:zh-Hant": "埃森",
    "openGeoDB:community_identification_number": "05113",
    "openGeoDB:license_plate_code": "E",
    "openGeoDB:loc_id": "426",
    "place": "city",
    "population": "569884",
    "ref:LOCODE": "DEESS",
    "wikidata": "Q2066",
    "wikipedia": "de:Essen"
  }
},
{
  "type": "node",
  "id": 27418664,
  "lat": 50.1106444,
  "lon": 8.6820917,
  "tags": {
    "alt_name": "Mainhattan;FFM;Frankfurt a. M.",
    "alt_name:en": "Frankfort",
    "alt_name:hu": "Majna-Frankfurt",
    "ele": "112",
    "name": "Frankfurt am Main",
    "name:an": "Frankfurt d'o Main",
    "name:ar": "فرانكفورت",
    "name:ca": "Frankfurt del Main",
    "name:cs": "Frankfurt nad Mohanem",
    "name:de": "Frankfurt am Main",
    "name:el": "Φρανκφούρτη",
    "name:en": "Frankfurt",
    "name:eo": "Frankfurto",
    "name:es": "Fráncfort del Meno",
    "name:fr": "Francfort-sur-le-Main",
    "name:he": "פרנקפורט",
    "name:hr": "Frankfurt na Majni",
    "name:hsb": "Frankobrod nad Mohanom",
    "name:hu": "Frankfurt am Main",
    "name:it": "Francoforte sul Meno",
    "name:ja": "フランクフルト・アム・マイン",
    "name:ko": "프랑크푸르트",
    "name:la": "Francofurtum ad Moenum",
    "name:lt": "Frankfurtas prie Maino",
    "name:lv": "Frankfurte pie Mainas",
    "name:mk": "Франкфурт на Мајна",
    "name:ms": "Frankfurt",
    "name:nds": "Frankfort an’n Main",
    "name:pl": "Frankfurt nad Menem",
    "name:ro": "Frankfurt pe Main",
    "name:ru": "Франкфурт-на-Майне",
    "name:sk": "Frankfurt nad Mohanom",
    "name:sl": "Frankfurt na Majni",
    "name:sr": "Франкфурт на Мајни",
    "name:uk": "Франкфурт-на-Майні",
    "name:ur": "فرینکفرٹ آم مین",
    "name:zh-Hans": "美因河畔法兰克福",
    "name:zh-Hant": "美茵河畔法蘭克福",
    "official_name": "Frankfurt am Main",
    "place": "city",
    "population": "701350",
    "ref:LOCODE": "DEFRA",
    "reg_name": "Frankfurt",
    "short_name": "Frankfurt",
    "wikidata": "Q1794",
    "wikimedia_commons": "Category:Frankfurt am Main",
    "wikipedia": "de:Frankfurt am Main"
  }
},
{
  "type": "node",
  "id": 29063084,
  "lat": 50.8749804,
  "lon": 8.0227233,
  "tags": {
    "ele": "267",
    "is_in:country_code": "DE",
    "is_in:iso_3166_2": "DE-NW",
    "name": "Siegen",
    "name:ar": "زيغن",
    "name:de": "Siegen",
    "name:fa": "زیگن",
    "name:ru": "Зиген",
    "name:sr": "Зиген",
    "openGeoDB:community_identification_number": "05970040",
    "openGeoDB:license_plate_code": "SI",
    "openGeoDB:loc_id": "24252",
    "openGeoDB:postal_codes": "57072,57074,57076,57078,57080",
    "openGeoDB:telephone_area_code": "0271",
    "place": "city",
    "population": "99403",
    "ref:LOCODE": "DESGE",
    "wikidata": "Q3167",
    "wikipedia": "de:Siegen"
  }
},
{
  "type": "node",
  "id": 29774529,
  "lat": 51.1981778,
  "lon": 6.6916476,
  "tags": {
    "de:amtlicher_gemeindeschluessel": "05162024",
    "ele": "40",
    "fixme:postal_code": "41460;41462;41464;41466;41468;41469;41470;41472",
    "license_plate_code": "NE",
    "loc_name": "Nüss",
    "name": "Neuss",
    "name:ar": "نويس",
    "name:be": "Нойс",
    "name:bg": "Нойс",
    "name:ja": "ノイス",
    "name:kk": "Нойс",
    "name:ko": "노이스",
    "name:ksh": "Nüss",
    "name:la": "Novaesium",
    "name:lt": "Noisas",
    "name:pnb": "نیوس",
    "name:ru": "Нойс",
    "name:sr": "Нојс",
    "name:uk": "Нойс",
    "name:zh": "诺伊斯",
    "name:zh-Hans": "诺伊斯",
    "name:zh-Hant": "諾伊斯",
    "old_name": "Neuß",
    "place": "city",
    "population": "159122",
    "population:date": "2017-12-31",
    "source:population": "https://www.neuss.de/wirtschaft/statistiken/bezirke/bezirkstabelle",
    "telephone_area_code": "02131",
    "website": "http://www.neuss.de/",
    "wikidata": "Q2948",
    "wikipedia": "de:Neuss"
  }
},
{
  "type": "node",
  "id": 29923357,
  "lat": 50.9929303,
  "lon": 7.1277379,
  "tags": {
    "alt_name:mk": "Бергиш Гладбах",
    "name": "Bergisch Gladbach",
    "name:ar": "برغش غلادباخ",
    "name:fa": "برگیش گلادباخ",
    "name:mk": "Бершки Гладбах",
    "name:sr": "Бергиш Гладбах",
    "name:zh-Hans": "贝尔吉施格拉德巴赫",
    "name:zh-Hant": "貝爾吉施格拉德巴赫",
    "note": "place auf town zurückgeändert, da kein \"Großstadtcharakter\"",
    "openGeoDB:loc_id": "14331",
    "place": "city",
    "population": "109425",
    "wikidata": "Q3117",
    "wikipedia": "de:Bergisch Gladbach"
  }
},
{
  "type": "node",
  "id": 30137197,
  "lat": 52.2646577,
  "lon": 10.5236066,
  "tags": {
    "ele": "75",
    "name": "Braunschweig",
    "name:ar": "برونشوايك",
    "name:de": "Braunschweig",
    "name:en": "Brunswick",
    "name:es": "Brunswick",
    "name:fr": "Brunswick",
    "name:fy": "Breunswyk",
    "name:gd": "Brunswick",
    "name:is": "Brúnsvík",
    "name:la": "Brunsvicum",
    "name:lt": "Braunšveigas",
    "name:lv": "Braunšveiga",
    "name:nds": "Brunswiek",
    "name:nl": "Brunswijk",
    "name:pl": "Brunszwik",
    "name:ru": "Брауншвейг",
    "name:sr": "Брауншвајг",
    "name:tzl": "Bráunschvaic",
    "place": "city",
    "population": "248023",
    "population:date": "2017",
    "ref:LOCODE": "DEBWE",
    "wikidata": "Q2773",
    "wikipedia": "de:Braunschweig"
  }
},
{
  "type": "node",
  "id": 30319497,
  "lat": 51.6143815,
  "lon": 7.1978546,
  "tags": {
    "ele": "85",
    "name": "Recklinghausen",
    "name:ar": "ركلنهوزن",
    "name:la": "Recklinghusium",
    "name:nds": "Riäkelhusen",
    "name:ru": "Реклингхаузен",
    "name:sr": "Реклингхаузен",
    "openGeoDB:community_identification_number": "05562",
    "openGeoDB:is_in_loc_id": "183",
    "openGeoDB:license_plate_code": "RE",
    "openGeoDB:loc_id": "211",
    "openGeoDB:type": "Kreis",
    "place": "city",
    "population": "115320",
    "population:date": "2013",
    "ref:LOCODE": "DEREC",
    "wikidata": "Q3050"
  }
},
{
  "type": "node",
  "id": 31172722,
  "lat": 52.4205588,
  "lon": 10.7861682,
  "tags": {
    "ele": "63",
    "layer": "5",
    "name": "Wolfsburg",
    "name:ar": "ولفسبورغ",
    "name:az-Arab": "وولفسبورق",
    "name:azb": "وولفسبورق",
    "name:de": "Wolfsburg",
    "name:el": "Βόλφσμπουργκ",
    "name:es": "Wolfsburgo",
    "name:fa": "ولفسبورگ",
    "name:fr": "Wolfsbourg",
    "name:hy": "Վոլֆսբուրգ",
    "name:ja": "ヴォルフスブルク",
    "name:la": "Lycopolis",
    "name:lt": "Volfsburgas",
    "name:nds": "Wulfsborg",
    "name:ru": "Вольфсбург",
    "name:sr": "Волфсбург",
    "name:uk": "Вольфсбург",
    "name:ur": "وولفسبرگ",
    "name:zh": "沃尔夫斯堡",
    "old_name": "Stadt des KdF-Wagens bei Fallersleben",
    "place": "city",
    "population": "122457",
    "ref:LOCODE": "DEWOB",
    "wikidata": "Q3014",
    "wikipedia": "de:Wolfsburg"
  }
},
{
  "type": "node",
  "id": 31941291,
  "lat": 49.7596208,
  "lon": 6.6441878,
  "tags": {
    "ele": "137",
    "name": "Trier",
    "name:am": "ትሪር",
    "name:ar": "ترير",
    "name:az-Arab": "تری‌یر",
    "name:azb": "تری‌یر",
    "name:ca": "Trèveris",
    "name:cs": "Trevír",
    "name:de": "Trier",
    "name:el": "Τριρ",
    "name:en": "Trier",
    "name:eo": "Treviro",
    "name:es": "Tréveris",
    "name:fr": "Trèves",
    "name:hy": "Թրիեր",
    "name:it": "Treviri",
    "name:ja": "トリーア",
    "name:kk-Arab": "ترىير",
    "name:la": "Augusta Treverorum",
    "name:lb": "Tréier",
    "name:pa": "ਤਖ਼ੀਆ",
    "name:pl": "Trewir",
    "name:pt": "Tréveris",
    "name:ru": "Трир",
    "name:sr": "Трир",
    "name:uk": "Трір",
    "name:ur": "ترئیر",
    "name:zh": "特里尔",
    "old_name": "Augusta Treverorum",
    "place": "city",
    "population": "107233",
    "ref:LOCODE": "DETRI",
    "wikidata": "Q3138",
    "wikipedia": "de:Trier"
  }
},
{
  "type": "node",
  "id": 31985630,
  "lat": 48.4919508,
  "lon": 9.2114144,
  "tags": {
    "alt_name:ar": "ريوتلنجن",
    "ele": "382",
    "name": "Reutlingen",
    "name:ar": "رويتلينغن",
    "name:fr": "Reutlingen",
    "name:la": "Reutlingen",
    "name:nds": "Reutlingen",
    "name:ru": "Ройтлинген",
    "name:sr": "Ројтлинген",
    "name:uk": "Ройтлінген",
    "place": "city",
    "population": "112099",
    "wikidata": "Q3085",
    "wikipedia": "de:Reutlingen"
  }
},
{
  "type": "node",
  "id": 33997995,
  "lat": 52.1315889,
  "lon": 11.6399609,
  "tags": {
    "capital": "4",
    "ele": "55",
    "name": "Magdeburg",
    "name:ar": "مغدبورغ",
    "name:cs": "Magdeburk",
    "name:de": "Magdeburg",
    "name:dsb": "Magdeburg",
    "name:eo": "Magdeburgo",
    "name:es": "Magdeburgo",
    "name:fa": "ماگدبورگ",
    "name:fr": "Magdebourg",
    "name:he": "מגדבורג",
    "name:hsb": "Dźěwin",
    "name:hy": "Մագդեբուրգ",
    "name:it": "Magdeburgo",
    "name:ja": "マクデブルク",
    "name:ka": "მაგდებურგი",
    "name:ko": "마그데부르크",
    "name:la": "Magdeburgum",
    "name:lt": "Magdeburgas",
    "name:lv": "Magdeburga",
    "name:nds": "Meideborg",
    "name:nl": "Maagdenburg",
    "name:pl": "Magdeburg",
    "name:pt": "Magdeburgo",
    "name:ru": "Магдебург",
    "name:sq": "Magdeburgu",
    "name:sr": "Магдебург",
    "name:uk": "Магдебурґ",
    "name:zh": "马格德堡",
    "name:zh-Hant": "馬德堡",
    "place": "city",
    "population": "231021",
    "ref:LOCODE": "DEMAG",
    "website": "https://www.magdeburg.de/",
    "wikidata": "Q1733",
    "wikipedia": "de:Magdeburg"
  }
},
{
  "type": "node",
  "id": 129992313,
  "lat": 52.1503721,
  "lon": 10.3593147,
  "tags": {
    "ele": "90",
    "end_date:old_name": "1952-01-24",
    "name": "Salzgitter",
    "name:ar": "زالتسغيتر",
    "name:de": "Salzgitter",
    "name:fa": "زالتسگیتر",
    "name:ja": "ザルツギッター",
    "name:lt": "Zalcgiteris",
    "name:nds": "Soltgitter",
    "name:ru": "Зальцгиттер",
    "name:sr": "Залцгитер",
    "old_name": "Watenstedt-Salzgitter",
    "place": "city",
    "population": "103694",
    "population:date": "2013",
    "ref:LOCODE": "DESAR",
    "start_date": "1942-04-01",
    "wikidata": "Q3200",
    "wikipedia": "de:Salzgitter"
  }
},
{
  "type": "node",
  "id": 240026265,
  "lat": 51.5215810,
  "lon": 6.9292040,
  "tags": {
    "ele": "55",
    "name": "Bottrop",
    "name:ar": "بوتروب",
    "name:la": "Botropium",
    "name:nds": "Bottrop",
    "name:ru": "Ботроп",
    "name:sr": "Ботроп",
    "openGeoDB:community_identification_number": "05512000",
    "openGeoDB:license_plate_code": "BOT",
    "openGeoDB:loc_id": "14820",
    "openGeoDB:postal_codes": "46236,46238,46240,46242,46244",
    "openGeoDB:telephone_area_code": "02041",
    "place": "city",
    "population": "116055",
    "ref:LOCODE": "DEBOT",
    "wikidata": "Q3069",
    "wikipedia": "de:Bottrop"
  }
},
{
  "type": "node",
  "id": 240028377,
  "lat": 50.0820384,
  "lon": 8.2416556,
  "tags": {
    "alt_name:la": "Aquae Mattiacorum",
    "capital": "4",
    "ele": "117",
    "name": "Wiesbaden",
    "name:ar": "فيسبادن",
    "name:de": "Wiesbaden",
    "name:ja": "ヴィースバーデン",
    "name:la": "Aquae Mattiacae",
    "name:lt": "Vysbadenas",
    "name:nds": "Wiesbaden",
    "name:pl": "Wiesbaden",
    "name:ru": "Висбаден",
    "name:sr": "Висбаден",
    "name:uk": "Вісбаден",
    "name:zh": "威斯巴登",
    "name:zh-Hans": "威斯巴登",
    "name:zh-Hant": "威斯巴登",
    "openGeoDB:community_identification_number": "06414000",
    "place": "city",
    "population": "273871",
    "population:date": "2013",
    "ref:LOCODE": "DEWIB",
    "website": "https://www.wiesbaden.de/",
    "wikidata": "Q1721",
    "wikipedia": "de:Wiesbaden"
  }
},
{
  "type": "node",
  "id": 240033839,
  "lat": 54.7833021,
  "lon": 9.4333264,
  "tags": {
    "de:amtlicher_gemeindeschluessel": "01001000",
    "int_name": "Flensburg",
    "is_in": "Flensburg,Schleswig-Holstein,Bundesrepublik Deutschland,Europe",
    "name": "Flensburg",
    "name:da": "Flensborg",
    "name:de": "Flensburg",
    "name:en": "Flensburg",
    "name:es": "Flensburgo",
    "name:fr": "Flensbourg",
    "name:is": "Flensborg",
    "name:it": "Flensburgo",
    "name:ku": "Flensbûrx",
    "name:nds": "Flensborg",
    "place": "city",
    "population": "93112",
    "postal_code": "24937,24939,24941,24943,24944",
    "ref:LOCODE": "DEFLF",
    "wikidata": "Q3798",
    "wikipedia": "de:Flensburg"
  }
},
{
  "type": "node",
  "id": 240037709,
  "lat": 52.0191005,
  "lon": 8.5310070,
  "tags": {
    "ele": "118",
    "name": "Bielefeld",
    "name:ar": "بيلفلد",
    "name:de": "Bielefeld",
    "name:ja": "ビーレフェルト",
    "name:la": "Bilivelda",
    "name:nds": "Builefeld",
    "name:ru": "Билефельд",
    "name:sr": "Билефелд",
    "name:uk": "Білефельд",
    "place": "city",
    "population": "328864",
    "ref:LOCODE": "DEBFE",
    "website": "https://www.bielefeld.de/",
    "wikidata": "Q2112",
    "wikipedia": "de:Bielefeld"
  }
},
{
  "type": "node",
  "id": 240038130,
  "lat": 50.9777974,
  "lon": 11.0287364,
  "tags": {
    "capital": "4",
    "contact:website": "http://www.erfurt.de",
    "ele": "194",
    "name": "Erfurt",
    "name:af": "Erfurt",
    "name:am": "ኤርፉርት",
    "name:ar": "إرفورت",
    "name:az-Arab": "ارفورت",
    "name:azb": "ارفورت",
    "name:be": "Эрфурт",
    "name:bg": "Ерфурт",
    "name:de": "Erfurt",
    "name:dsb": "Erfurt",
    "name:el": "Ερφούρτη",
    "name:eo": "Erfurto",
    "name:es": "Érfurt",
    "name:fa": "ارفورت",
    "name:fr": "Erfurt",
    "name:hsb": "Jarobrod",
    "name:hy": "Էրֆուրտ",
    "name:ja": "エアフルト",
    "name:ka": "ერფურტი",
    "name:ko": "에르푸르트",
    "name:la": "Erfordia",
    "name:lt": "Erfurtas",
    "name:lv": "Erfurte",
    "name:nl": "Erfurt",
    "name:ps": "ارفورت",
    "name:ru": "Эрфурт",
    "name:sq": "Erfurti",
    "name:sr": "Ерфурт",
    "name:sv": "Erfurt",
    "name:uk": "Ерфурт",
    "name:ur": "ارفرٹ",
    "name:zh": "埃尔福特",
    "openGeoDB:community_identification_number": "16051000",
    "openGeoDB:license_plate_code": "EF",
    "openGeoDB:loc_id": "16263",
    "openGeoDB:postal_codes": "99084,99085,99086,99087,99089,99091,99092,99094,99096,99097,99098,99099,99100,99102",
    "openGeoDB:telephone_area_code": "0361",
    "place": "city",
    "population": "213332",
    "ref:LOCODE": "DEERF",
    "source": "http://wiki.openstreetmap.org/wiki/Import/Catalogue/Kreisgrenzen_Deutschland_2005",
    "wiki:osm": "http://wiki.openstreetmap.org/wiki/Erfurt",
    "wikidata": "Q1729",
    "wikimedia_commons": "Category:Erfurt",
    "wikipedia": "de:Erfurt"
  }
},
{
  "type": "node",
  "id": 240041315,
  "lat": 50.7763510,
  "lon": 6.0838620,
  "tags": {
    "alt_name": "Bad Aachen",
    "ele": "173",
    "name": "Aachen",
    "name:ar": "آخن",
    "name:br": "Aac'hen",
    "name:ca": "Aquisgrà",
    "name:cs": "Cáchy",
    "name:de": "Aachen",
    "name:eo": "Aĥeno",
    "name:es": "Aquisgrán",
    "name:eu": "Akisgran",
    "name:fa": "آخن",
    "name:fr": "Aix-la-Chapelle",
    "name:it": "Aquisgrana",
    "name:ksh": "Oche",
    "name:la": "Aquisgranum",
    "name:lb": "Oochen",
    "name:nb": "Aachen",
    "name:nds": "Aken",
    "name:nl": "Aken",
    "name:pl": "Akwizgran",
    "name:pt": "Aquisgrão",
    "name:ru": "Ахен",
    "name:sr": "Ахен",
    "name:ur": "آخن",
    "name:zh": "亚琛",
    "name:zh-Hans": "亚琛",
    "name:zh-Hant": "亞琛",
    "openGeoDB:community_identification_number": "05313000",
    "openGeoDB:license_plate_code": "AC",
    "openGeoDB:loc_id": "13352",
    "openGeoDB:postal_codes": "52062,52064,52066,52068,52070,52072,52074,52076,52078,52080",
    "openGeoDB:telephone_area_code": "0241",
    "place": "city",
    "population": "241683",
    "ref:LOCODE": "DEAAH",
    "source:name:br": "ofis publik ar brezhoneg",
    "source:population": "Landesbetrieb Information und Technik Nordrhein-Westfalen (IT.NRW)",
    "website": "https://aachen.de/",
    "wikidata": "Q1017",
    "wikimedia_commons": "Category:Aachen",
    "wikipedia": "de:Aachen"
  }
},
{
  "type": "node",
  "id": 240046032,
  "lat": 48.8908846,
  "lon": 8.7029532,
  "tags": {
    "alt_name:ar": "بفورتسهايم",
    "ele": "261",
    "is_in:iso_3166_2": "DE-BW",
    "name": "Pforzheim",
    "name:ar": "فورتسهايم",
    "name:ja": "プフォルツハイム",
    "name:la": "Phorca",
    "name:sr": "Пфорцхајм",
    "name:uk": "Пфорцгайм",
    "name:zh": "普福尔茨海姆",
    "openGeoDB:community_identification_number": "08231000",
    "openGeoDB:is_in_loc_id": "353",
    "openGeoDB:layer": "6",
    "openGeoDB:license_plate_code": "PF",
    "openGeoDB:loc_id": "22432",
    "openGeoDB:postal_codes": "75175,75172,75173,75177,75179,75180,75181",
    "openGeoDB:telephone_area_code": "07231",
    "place": "city",
    "population": "117754",
    "ref:LOCODE": "DEPFO",
    "wikidata": "Q3046",
    "wikipedia": "de:Pforzheim"
  }
},
{
  "type": "node",
  "id": 240048753,
  "lat": 51.3331205,
  "lon": 6.5623343,
  "tags": {
    "ele": "38",
    "name": "Krefeld",
    "name:ar": "كريفلد",
    "name:de": "Krefeld",
    "name:fa": "کرفلد",
    "name:ja": "クレーフェルト",
    "name:ksh": "Kriievel",
    "name:la": "Crefeldia",
    "name:ru": "Крефельд",
    "name:sr": "Крефелд",
    "name:uk": "Крефельд",
    "name:ur": "کریفیلد",
    "name:zh-Hans": "克雷费尔德",
    "name:zh-Hant": "克雷費爾德",
    "openGeoDB:community_identification_number": "05114000",
    "openGeoDB:license_plate_code": "KR",
    "openGeoDB:loc_id": "19658",
    "openGeoDB:postal_codes": "47798,47799,47800,47802,47803,47804,47805,47807,47809,47829,47839",
    "openGeoDB:telephone_area_code": "02151",
    "place": "city",
    "population": "222058",
    "population:date": "2013",
    "ref:LOCODE": "DEKRE",
    "wikidata": "Q2805",
    "wikipedia": "de:Krefeld"
  }
},
{
  "type": "node",
  "id": 240052693,
  "lat": 51.5110321,
  "lon": 7.0960124,
  "tags": {
    "ele": "48",
    "name": "Gelsenkirchen",
    "name:ar": "غلزنكيرشن",
    "name:la": "Gelsenkircha",
    "name:nds": "Gelsenkiärken",
    "place": "city",
    "population": "260368",
    "ref:LOCODE": "DEGEK",
    "wikidata": "Q2765",
    "wikipedia": "de:Gelsenkirchen"
  }
},
{
  "type": "node",
  "id": 240055326,
  "lat": 51.4349990,
  "lon": 6.7595620,
  "tags": {
    "ele": "33",
    "name": "Duisburg",
    "name:ar": "دويسبورغ",
    "name:az-Arab": "دویسبورق",
    "name:azb": "دویسبورق",
    "name:de": "Duisburg",
    "name:el": "Ντούισμπουργκ",
    "name:es": "Duisburgo",
    "name:fr": "Duisbourg",
    "name:gl": "Duisburgo",
    "name:hy": "Դույսբուրգ",
    "name:ja": "デュースブルク",
    "name:kk-Arab": "دۋيسبۋرگ",
    "name:la": "Thuiscoburgum",
    "name:nds": "Duisborg",
    "name:pt": "Duisburgo",
    "name:ru": "Дуйсбург",
    "name:sr": "Дуизбург",
    "name:uk": "Дуйсбург",
    "name:ur": "ڈیسبورگ",
    "name:zh": "杜伊斯堡",
    "name:zh-Hans": "杜伊斯堡",
    "name:zh-Hant": "杜伊斯堡",
    "openGeoDB:community_identification_number": "05112000",
    "openGeoDB:license_plate_code": "DU",
    "openGeoDB:loc_id": "15883",
    "openGeoDB:postal_codes": "47051,47053,47055,47057,47058,47059,47119,47137,47138,47139,47166,47167,47169,47178,47179,47198,47199,47226,47228,47229,47239,47249,47259,47269,47279",
    "openGeoDB:telephone_area_code": "0203",
    "place": "city",
    "population": "486855",
    "ref:LOCODE": "DEDUI",
    "wikidata": "Q2100",
    "wikipedia": "de:Duisburg"
  }
},
{
  "type": "node",
  "id": 240056905,
  "lat": 52.2719595,
  "lon": 8.0476350,
  "tags": {
    "ele": "63",
    "name": "Osnabrück",
    "name:ar": "أسنابروك",
    "name:bg": "Оснабрюк",
    "name:de": "Osnabrück",
    "name:he": "אוסנבריק",
    "name:ja": "オスナブリュック",
    "name:la": "Osnabruga",
    "name:nds": "Ossenbrügge",
    "name:nl": "Osnabrück",
    "name:ru": "Оснабрюк",
    "name:sr": "Оснабрик",
    "name:uk": "Оснабрюк",
    "name:zh": "奥斯纳布吕克",
    "old_name:nl": "Osnabrugge",
    "place": "city",
    "population": "167730",
    "ref:LOCODE": "DEOSN",
    "website": "https://www.osnabrueck.de",
    "wikidata": "Q2916",
    "wikipedia": "de:Osnabrück"
  }
},
{
  "type": "node",
  "id": 240058050,
  "lat": 49.4093582,
  "lon": 8.6947240,
  "tags": {
    "alt_name:ar": "هايدلبرج",
    "de:amtlicher_gemeindeschluessel": "08221000",
    "ele": "114",
    "name": "Heidelberg",
    "name:ar": "هايدلبرغ",
    "name:de": "Heidelberg",
    "name:el": "Χαϊδελβέργη",
    "name:en": "Heidelberg",
    "name:fr": "Heidelberg",
    "name:ja": "ハイデルベルク",
    "name:la": "Heidelberga",
    "name:nds": "Heidelbarg",
    "name:pfl": "Haidlbärsch",
    "name:ru": "Хайдельберг",
    "name:sr": "Хајделберг",
    "name:uk": "Гайдельберг",
    "name:zh": "海德堡",
    "name:zh-Hant": "海德堡",
    "place": "city",
    "population": "152113",
    "ref:LOCODE": "DEHEI",
    "wikidata": "Q2966",
    "wikipedia": "de:Heidelberg"
  }
},
{
  "type": "node",
  "id": 240060919,
  "lat": 49.4892913,
  "lon": 8.4673098,
  "tags": {
    "de:amtlicher_gemeindeschluessel": "08222000",
    "is_in:country_code": "DE",
    "is_in:iso_3166_2": "DE-BW",
    "name": "Mannheim",
    "name:ar": "مانهايم",
    "name:da": "Mannheim",
    "name:de": "Mannheim",
    "name:el": "Μαννχεΐμη",
    "name:en": "Mannheim",
    "name:eo": "Mannheim",
    "name:es": "Mannheim",
    "name:fr": "Mannheim",
    "name:it": "Mannheim",
    "name:ja": "マンハイム",
    "name:la": "Manhemium",
    "name:lb": "Mannheim",
    "name:mk": "Манхајм",
    "name:pfl": "Mannem",
    "name:pl": "Mannheim",
    "name:pt": "Mannheim",
    "name:ru": "Мангейм",
    "name:sr": "Манхајм",
    "name:tr": "Mannheim",
    "name:uk": "Маннгейм",
    "name:ur": "مانہائیم",
    "name:zh": "曼海姆",
    "name:zh-Hans": "曼海姆",
    "name:zh-Hant": "曼海姆",
    "place": "city",
    "population": "310000",
    "ref:LOCODE": "DEMGH",
    "website": "https://www.mannheim.de/",
    "wikidata": "Q2119",
    "wikipedia": "de:Mannheim"
  }
},
{
  "type": "node",
  "id": 240062631,
  "lat": 51.1947131,
  "lon": 6.4353792,
  "tags": {
    "ele": "70",
    "is_in": "Regierungsbezirk Düsseldorf,Nordrhein-Westfalen,Bundesrepublik Deutschland,Europe",
    "is_in:country_code": "DE",
    "is_in:iso_3166_2": "DE-NW",
    "name": "Mönchengladbach",
    "name:ar": "مونشنغلدبخ",
    "name:fr": "Mönchengladbach",
    "name:la": "Gladbacum Monachorum",
    "name:ru": "Мёнхенгладбах",
    "name:sr": "Менхенгладбах",
    "name:zh-Hans": "门兴格拉德巴赫",
    "name:zh-Hant": "門興格拉德巴赫",
    "openGeoDB:community_identification_number": "05116000",
    "openGeoDB:license_plate_code": "MG",
    "openGeoDB:loc_id": "21015",
    "openGeoDB:postal_codes": "41061,41063,41065,41066,41068,41069,41169,41179,41189,41199,41236,41238,41239",
    "openGeoDB:telephone_area_code": "02161",
    "place": "city",
    "population": "255430",
    "ref:LOCODE": "DEMGL",
    "wikidata": "Q2758",
    "wikipedia": "de:Mönchengladbach"
  }
},
{
  "type": "node",
  "id": 240063145,
  "lat": 51.1798706,
  "lon": 7.1943544,
  "tags": {
    "name": "Remscheid",
    "name:ar": "رمشايد",
    "name:la": "Remscheidium",
    "name:ru": "Ремшайд",
    "name:sr": "Ремшајд",
    "openGeoDB:community_identification_number": "05120000",
    "openGeoDB:license_plate_code": "RS",
    "openGeoDB:loc_id": "22989",
    "openGeoDB:postal_codes": "42853,42855,42857,42859,42897,42899",
    "openGeoDB:telephone_area_code": "02191",
    "place": "city",
    "population": "116827",
    "ref:LOCODE": "DERED",
    "wikidata": "Q3097",
    "wikipedia": "de:Remscheid"
  }
},
{
  "type": "node",
  "id": 240072040,
  "lat": 50.1055002,
  "lon": 8.7610698,
  "tags": {
    "alt_name": "Offenbach",
    "ele": "98",
    "loc_name": "Offenbach",
    "name": "Offenbach am Main",
    "name:ar": "أوفنباخ على ماين",
    "name:de": "Offenbach am Main",
    "name:es": "Offenbach del Meno",
    "name:fr": "Offenbach-sur-le-Main",
    "name:ja": "オッフェンバッハ",
    "name:la": "Offenbachium ad Moenum",
    "name:ru": "Оффенбах",
    "name:sr": "Офенбах на Мајни",
    "name:zh": "美因河畔奥芬巴赫",
    "name:zh-Hant": "美茵河畔奧芬巴赫",
    "openGeoDB:community_identification_number": "06413000",
    "openGeoDB:is_in_loc_id": "527",
    "openGeoDB:license_plate_code": "OF",
    "openGeoDB:loc_id": "22108",
    "openGeoDB:postal_codes": "63065,63067,63069,63071,63073,63075",
    "openGeoDB:telephone_area_code": "069",
    "place": "city",
    "population": "136824",
    "population:date": "2018-06-30",
    "ref:LOCODE": "DEOFF",
    "source:population": "Melderegister Stadt Offenbach a.M.",
    "wikidata": "Q3042",
    "wikipedia": "de:Offenbach am Main"
  }
},
{
  "type": "node",
  "id": 240072888,
  "lat": 51.1721629,
  "lon": 7.0845893,
  "tags": {
    "name": "Solingen",
    "name:ar": "زولينغن",
    "name:ja": "ゾーリンゲン",
    "name:la": "Salingiacum",
    "name:ru": "Золинген",
    "name:sr": "Золинген",
    "openGeoDB:community_identification_number": "05122000",
    "openGeoDB:license_plate_code": "SG",
    "openGeoDB:loc_id": "24338",
    "openGeoDB:postal_codes": "42651,42653,42655,42657,42659,42697,42699,42719",
    "openGeoDB:telephone_area_code": "0212",
    "place": "city",
    "population": "164205",
    "ref:LOCODE": "DESOL",
    "wikidata": "Q2942",
    "wikipedia": "de:Solingen"
  }
},
{
  "type": "node",
  "id": 240074718,
  "lat": 49.8727750,
  "lon": 8.6511770,
  "tags": {
    "name": "Darmstadt",
    "name:ar": "دارمشتات",
    "name:de": "Darmstadt",
    "name:ja": "ダルムシュタット",
    "name:la": "Darmstadium",
    "name:nds": "Darmstadt",
    "name:ru": "Дармштадт",
    "name:sr": "Дармштат",
    "name:zh": "达姆施塔特",
    "name:zh-Hans": "达姆施塔特",
    "name:zh-Hant": "達姆城",
    "place": "city",
    "population": "159631",
    "population:date": "2021-12-31",
    "source:population": "wikipedia",
    "wikidata": "Q2973",
    "wikipedia": "pl:Darmstadt"
  }
},
{
  "type": "node",
  "id": 240090160,
  "lat": 50.9281717,
  "lon": 11.5879359,
  "tags": {
    "contact:facebook": "https://www.facebook.com/jena.lichtstadt",
    "contact:twitter": "https://twitter.com/jenalichtstadt",
    "contact:website": "https://jena.de",
    "ele": "143",
    "is_in": "Jena,Thüringen,Bundesrepublik Deutschland,Europe",
    "is_in:country_code": "DE",
    "is_in:iso_3166_2": "DE-TH",
    "name": "Jena",
    "name:ar": "يينا",
    "name:az-Arab": "یینا",
    "name:azb": "یینا",
    "name:de": "Jena",
    "name:el": "Ιένα",
    "name:en": "Jena",
    "name:fa": "یینا",
    "name:fr": "Iéna",
    "name:ja": "イェーナ",
    "name:kmr": "ژەنا",
    "name:ku-Arab": "ژەنا",
    "name:lt": "Jėna",
    "name:ru": "Йена",
    "name:sr": "Јена",
    "name:ur": "یئنا",
    "name:zh": "耶拿",
    "openGeoDB:loc_id": "18931",
    "place": "city",
    "population": "111343",
    "population:date": "2019-12-31",
    "ref:LOCODE": "DEJEN",
    "wikidata": "Q3150",
    "wikipedia": "de:Jena"
  }
},
{
  "type": "node",
  "id": 240090728,
  "lat": 51.2640180,
  "lon": 7.1780374,
  "tags": {
    "name": "Wuppertal",
    "name:ar": "فوبرتال",
    "name:de": "Wuppertal",
    "name:el": "Βούπερταλ",
    "name:fa": "ووپرتال",
    "name:ja": "ヴッパータール",
    "name:la": "Vallis Vipperae",
    "name:nds": "Wupperdaal",
    "name:ru": "Вупперталь",
    "name:sr": "Вупертал",
    "name:ur": "ووپاٹال",
    "name:zh": "伍珀塔尔",
    "openGeoDB:community_identification_number": "05124000",
    "openGeoDB:license_plate_code": "W",
    "openGeoDB:loc_id": "26488",
    "openGeoDB:postal_codes": "42275,42103,42105,42107,42109,42111,42113,42115,42117,42119,42277,42279,42281,42283,42285,42287,42289,42327,42329,42349,42369,42389,42399",
    "openGeoDB:telephone_area_code": "0202",
    "place": "city",
    "population": "361077",
    "ref:LOCODE": "DEWUP",
    "website": "https://www.wuppertal.de",
    "wikidata": "Q2107",
    "wikipedia": "de:Wuppertal"
  }
},
{
  "type": "node",
  "id": 240092010,
  "lat": 47.9960901,
  "lon": 7.8494005,
  "tags": {
    "alt_name": "Freiburg i. Br.",
    "capital": "5",
    "contact:website": "https://www.freiburg.de",
    "ele": "278",
    "name": "Freiburg im Breisgau",
    "name:af": "Freiburg im Breisgau",
    "name:ar": "فرايبورغ",
    "name:bg": "Фрайбург",
    "name:ca": "Friburg de Brisgòvia",
    "name:cs": "Freiburg im Breisgau",
    "name:da": "Freiburg im Breisgau",
    "name:de": "Freiburg im Breisgau",
    "name:el": "Φρειβούργο",
    "name:en": "Freiburg im Breisgau",
    "name:eo": "Frajburgo en Breisgaŭ",
    "name:es": "Friburgo de Brisgovia",
    "name:et": "Freiburg",
    "name:eu": "Friburgo",
    "name:fa": "فرایبورگ",
    "name:fi": "Freiburg im Breisgau",
    "name:fr": "Fribourg-en-Brisgau",
    "name:gsw": "Friburg im Brisgau",
    "name:he": "פרייבורג בברייסגאו",
    "name:hr": "Freiburg",
    "name:hu": "Freiburg im Breisgau",
    "name:id": "Freiburg im Breisgau",
    "name:io": "Freiburg im Breisgau",
    "name:it": "Friburgo in Brisgovia",
    "name:ja": "フライブルク",
    "name:jbo": "Freiburg",
    "name:ka": "ფრაიბურგი",
    "name:ko": "프라이부르크",
    "name:la": "Friburgum Brisgoviae",
    "name:lb": "Freiburg im Breisgau",
    "name:lv": "Freiburga",
    "name:mk": "Фрајбург на Брајзгау",
    "name:mr": "फ्रायबुर्ग",
    "name:nl": "Freiburg im Breisgau",
    "name:nn": "Freiburg im Breisgau",
    "name:no": "Freiburg im Breisgau",
    "name:oc": "Friborg de Brisgòvia",
    "name:pl": "Fryburg Bryzgowijski",
    "name:pt": "Freiburg im Breisgau",
    "name:ro": "Freiburg",
    "name:ru": "Фрайбург-в-Брайсгау",
    "name:scn": "Friburgu",
    "name:sh": "Freiburg",
    "name:sk": "Freiburg",
    "name:sq": "Freiburg im Breisgau",
    "name:sr": "Фрајбург",
    "name:sv": "Freiburg im Breisgau",
    "name:tr": "Freiburg im Breisgau",
    "name:ur": "فری برگ",
    "name:vec": "Friburgo en Brisgovia",
    "name:vi": "Freiburg im Breisgau",
    "name:vo": "Freiburg (Badän)",
    "name:zh": "弗莱堡",
    "openGeoDB:community_identification_number": "08311000",
    "openGeoDB:license_plate_code": "FR",
    "openGeoDB:loc_id": "16633",
    "openGeoDB:postal_codes": "79098,79100,79102,79104,79106,79108,79110,79111,79112,79114,79115,79117",
    "openGeoDB:telephone_area_code": "0761",
    "place": "city",
    "population": "220286",
    "ref:LOCODE": "DEFBG",
    "short_name": "Freiburg",
    "wikidata": "Q2833",
    "wikipedia": "de:Freiburg im Breisgau"
  }
},
{
  "type": "node",
  "id": 240093234,
  "lat": 49.4432174,
  "lon": 7.7689951,
  "tags": {
    "name": "Kaiserslautern",
    "name:ar": "كايزرسلوترن",
    "name:ja": "カイザースラウテルン",
    "name:ru": "Кайзерслаутерн",
    "name:sr": "Кајзерслаутерн",
    "name:zh": "凯撒斯劳滕",
    "place": "city",
    "population": "97162",
    "ref:LOCODE": "DEKLT",
    "wikidata": "Q3758",
    "wikipedia": "de:Kaiserslautern"
  }
},
{
  "type": "node",
  "id": 240099833,
  "lat": 51.4818111,
  "lon": 7.2196635,
  "tags": {
    "ele": "100",
    "name": "Bochum",
    "name:ar": "بوخوم",
    "name:fr": "Bochum",
    "name:la": "Baucum",
    "name:nds": "Baukem",
    "name:ru": "Бохум",
    "name:sr": "Бохум",
    "name:uk": "Бохум",
    "name:zh": "波鸿",
    "name:zh-TW": "波洪",
    "openGeoDB:community_identification_number": "05911000",
    "openGeoDB:license_plate_code": "BO",
    "openGeoDB:loc_id": "14634",
    "openGeoDB:postal_codes": "44787,44789,44791,44793,44795,44797,44799,44801,44803,44805,44807,44809,44866,44867,44869,44879,44892,44894",
    "openGeoDB:telephone_area_code": "0234",
    "place": "city",
    "population": "371075",
    "ref:LOCODE": "DEBOM",
    "website": "https://www.bochum.de/",
    "wikidata": "Q2103",
    "wikipedia": "de:Bochum"
  }
},
{
  "type": "node",
  "id": 240102654,
  "lat": 50.3533278,
  "lon": 7.5943951,
  "tags": {
    "alt_name:en": "Coblenz",
    "ele": "73",
    "loc_name": "Kowelenz",
    "name": "Koblenz",
    "name:an": "Coblenza",
    "name:ar": "کوبلنتس",
    "name:ast": "Coblenza",
    "name:az-Arab": "کوبلنتس",
    "name:azb": "کوبلنتس",
    "name:br": "Koblenz",
    "name:ca": "Coblença",
    "name:cs": "Koblenec",
    "name:de": "Koblenz",
    "name:el": "Κόμπλεντς",
    "name:es": "Coblenza",
    "name:eu": "Koblentza",
    "name:fr": "Coblence",
    "name:it": "Coblenza",
    "name:ja": "コブレンツ",
    "name:kk-Arab": "كوبلەنتس",
    "name:la": "Confluentes",
    "name:lb": "Kueblenz",
    "name:lmo": "Coblenza",
    "name:nds": "Koblenz",
    "name:pl": "Koblencja",
    "name:pt": "Coblença",
    "name:ru": "Кобленц",
    "name:sr": "Кобленц",
    "name:ur": "کوبلینز",
    "name:zh": "科布伦茨",
    "place": "city",
    "population": "110643",
    "ref:LOCODE": "DEKOB",
    "wikidata": "Q3104",
    "wikipedia": "de:Koblenz"
  }
},
{
  "type": "node",
  "id": 240109189,
  "lat": 52.5170365,
  "lon": 13.3888599,
  "tags": {
    "admin_level": "2",
    "blind:description:de": "Auf www.berlinfuerblinde.de gibt es einen kostenlosen Audioguide und weitere Informationen.",
    "capital": "yes",
    "capital_ISO3166-1": "yes",
    "ele": "35",
    "email": "info@berlin.de",
    "name": "Berlin",
    "name:ab": "Берлин",
    "name:af": "Berlyn",
    "name:als": "Berlin",
    "name:am": "በርሊን",
    "name:an": "Berlín",
    "name:ang": "Berlin",
    "name:ar": "برلين",
    "name:arc": "ܒܪܠܝܢ",
    "name:arz": "بيرلين",
    "name:ast": "Berlín",
    "name:az": "Berlin",
    "name:ba": "Берлин",
    "name:bar": "Berlin",
    "name:bat-smg": "Berlīns",
    "name:be": "Берлін",
    "name:be-tarask": "Бэрлін",
    "name:bg": "Берлин",
    "name:bi": "Berlin",
    "name:bn": "বার্লিন",
    "name:bo": "པེ་ལིང་",
    "name:br": "Berlin",
    "name:bs": "Berlin",
    "name:bxr": "Берлин",
    "name:ca": "Berlín",
    "name:cbk-zam": "Berlín",
    "name:ckb": "بەرلین",
    "name:co": "Berlinu",
    "name:crh": "Berlin",
    "name:cs": "Berlín",
    "name:csb": "Berlëno",
    "name:cu": "Берлинъ",
    "name:cv": "Берлин",
    "name:cy": "Berlin",
    "name:da": "Berlin",
    "name:de": "Berlin",
    "name:diq": "Berlin",
    "name:dsb": "Barliń",
    "name:el": "Βερολίνο",
    "name:en": "Berlin",
    "name:eo": "Berlino",
    "name:es": "Berlín",
    "name:et": "Berliin",
    "name:eu": "Berlin",
    "name:ext": "Berlín",
    "name:fa": "برلین",
    "name:fi": "Berliini",
    "name:fo": "Berlin",
    "name:fr": "Berlin",
    "name:frp": "Bèrlin",
    "name:fur": "Berlin",
    "name:fy": "Berlyn",
    "name:ga": "Beirlín",
    "name:gan": "柏林",
    "name:gd": "Berlin",
    "name:gl": "Berlín",
    "name:gn": "Berlin",
    "name:gv": "Berleen",
    "name:haw": "Pelelina",
    "name:he": "ברלין",
    "name:hi": "बर्लिन",
    "name:hr": "Berlin",
    "name:hsb": "Berlin",
    "name:ht": "Bèlen",
    "name:hu": "Berlin",
    "name:hy": "Բեռլին",
    "name:ia": "Berlin",
    "name:id": "Berlin",
    "name:ie": "Berlin",
    "name:ilo": "Berlin, Alemania",
    "name:io": "Berlin",
    "name:is": "Berlín",
    "name:it": "Berlino",
    "name:iu": "ᐱᕐᓖᓐ",
    "name:ja": "ベルリン",
    "name:jbo": "berlin",
    "name:jv": "Berlin",
    "name:ka": "ბერლინი",
    "name:kab": "Berlin",
    "name:kbd": "Берлин",
    "name:kk": "Берлин",
    "name:kn": "ಬೆರ್ಲಿನ್",
    "name:ko": "베를린",
    "name:koi": "Берлин",
    "name:ksh": "Bälliin",
    "name:ku": "Berlîn",
    "name:kv": "Берлин",
    "name:kw": "Berlin",
    "name:ky": "Берлин",
    "name:la": "Berolinum",
    "name:lb": "Berlin",
    "name:lez": "Берлин",
    "name:lg": "Berlin",
    "name:li": "Berlien",
    "name:lij": "Berlin",
    "name:lmo": "Berlin",
    "name:ln": "Berlin",
    "name:lt": "Berlynas",
    "name:ltg": "Berlins",
    "name:lv": "Berlīne",
    "name:lzh": "柏林",
    "name:mg": "Berlin",
    "name:mhr": "Берлин",
    "name:mi": "Pearīni",
    "name:mk": "Берлин",
    "name:ml": "ബെര്‍ലിന്",
    "name:mn": "Берлин",
    "name:mr": "बर्लिन",
    "name:mrj": "Берлин",
    "name:ms": "Berlin",
    "name:mt": "Berlin",
    "name:my": "ဘာလင်မြို့",
    "name:myv": "Берлин ош",
    "name:mzn": "برلین",
    "name:na": "Berlin",
    "name:nah": "Berlin",
    "name:nan": "Berlin",
    "name:nap": "Berlino",
    "name:nds": "Berlin",
    "name:nds-nl": "Berlien",
    "name:nl": "Berlijn",
    "name:nn": "Berlin",
    "name:no": "Berlin",
    "name:nov": "Berlin",
    "name:nrm": "Bèrlîn",
    "name:oc": "Berlin",
    "name:os": "Берлин",
    "name:pam": "Berlin",
    "name:pdc": "Berlin, Deitschland",
    "name:pfl": "Balin",
    "name:pl": "Berlin",
    "name:pms": "Berlin",
    "name:pnb": "برلن",
    "name:pnt": "Βερολίνον",
    "name:prefix": "Land und Kreisfreie Stadt",
    "name:ps": "برلين",
    "name:pt": "Berlim",
    "name:qu": "Berlin",
    "name:rm": "Berlin",
    "name:rmy": "Berlin",
    "name:ro": "Berlin",
    "name:roa-rup": "Berlin",
    "name:roa-tara": "Berline",
    "name:ru": "Берлин",
    "name:rue": "Берлін",
    "name:sah": "Берлин",
    "name:sc": "Berlinu",
    "name:scn": "Birlinu",
    "name:sco": "Berlin",
    "name:se": "Berlin",
    "name:sh": "Berlin",
    "name:short": "BE",
    "name:si": "බර්ලිනය",
    "name:sk": "Berlín",
    "name:sl": "Berlin",
    "name:so": "Berlin",
    "name:sq": "Berlini",
    "name:sr": "Берлин",
    "name:stq": "Berlin",
    "name:su": "Berliini",
    "name:sv": "Berlin",
    "name:sw": "Berlin",
    "name:szl": "Berlin",
    "name:ta": "பெர்லின்",
    "name:te": "బెర్లిన్",
    "name:tet": "Berlín",
    "name:tg": "Берлин",
    "name:th": "เบอร์ลิน",
    "name:tl": "Berlin",
    "name:tpi": "Berlin",
    "name:tr": "Berlin",
    "name:tt": "Берлин",
    "name:ty": "Berlin",
    "name:tzl": "Berlin",
    "name:udm": "Берлин",
    "name:ug": "Bérlin",
    "name:uk": "Берлін",
    "name:ur": "برلن",
    "name:uz": "Berlin",
    "name:vec": "Berlin",
    "name:vi": "Béc-lin",
    "name:vls": "Berlyn",
    "name:vro": "Berliin",
    "name:wo": "Berlin",
    "name:xmf": "ბერლინი",
    "name:yi": "בערלין",
    "name:yo": "Berlin",
    "name:yue": "柏林",
    "name:zea": "Berlijn",
    "name:zh": "柏林",
    "name:zh-Hans": "柏林",
    "name:zh-Hant": "柏林",
    "name:zu": "Berlin",
    "official_status": "Land",
    "official_status:de": "Land",
    "official_status:en": "State",
    "official_status:ru": "земля",
    "old_name:vi": "Bá Linh",
    "openGeoDB:community_identification_number": "11000000",
    "openGeoDB:license_plate_code": "B",
    "openGeoDB:loc_id": "14356",
    "openGeoDB:postal_codes": "10178,10115,10117,10119,10179,10243,10245,10247,10249,10315,10317,10318,10319,10365,10367,10369,10405,10407,10409,10435,10437,10439,10551,10553,10555,10557,10559,10585,10587,10589,10623,10625,10627,10629,10707,10709,10711,10713,10715,10717,10719,10777,10",
    "openGeoDB:telephone_area_code": "030",
    "place": "city",
    "population": "3769962",
    "ref:LOCODE": "DEBER",
    "website": "https://www.berlin.de/",
    "wikidata": "Q64",
    "wikipedia": "de:Berlin"
  }
},
{
  "type": "node",
  "id": 240110547,
  "lat": 51.3582945,
  "lon": 7.4732960,
  "tags": {
    "alt_name:ar": "هاجن",
    "ele": "106",
    "name": "Hagen",
    "name:ar": "هاغن",
    "name:azb": "هاقن",
    "name:de": "Hagen",
    "name:el": "Χάγκεν",
    "name:fa": "هاگن",
    "name:ja": "ハーゲン",
    "name:la": "Hagenium",
    "name:nds": "Hagen",
    "name:pnb": "ہاگن",
    "name:prefix": "Stadt der Fernuniversität",
    "name:ru": "Хаген",
    "name:sr": "Хаген",
    "name:ur": "ہاگن",
    "openGeoDB:community_identification_number": "05914000",
    "openGeoDB:license_plate_code": "HA",
    "openGeoDB:loc_id": "17755",
    "openGeoDB:postal_codes": "58095,58089,58091,58093,58097,58099,58119,58135",
    "openGeoDB:telephone_area_code": "02331",
    "place": "city",
    "population": "186000",
    "ref:LOCODE": "DEHAG",
    "website": "https://www.hagen.de",
    "wikidata": "Q2871",
    "wikipedia": "de:Hagen"
  }
},
{
  "type": "node",
  "id": 240114473,
  "lat": 51.7177044,
  "lon": 8.7526530,
  "tags": {
    "capital": "6",
    "ele": "110",
    "name": "Paderborn",
    "name:ar": "بادربورن",
    "name:de": "Paderborn",
    "name:en": "Paderborn",
    "name:es": "Paderborn",
    "name:fa": "پادربورن",
    "name:fr": "Paderborn",
    "name:it": "Paderborn",
    "name:ja": "パーダーボルン",
    "name:la": "Paderbronna",
    "name:ru": "Падерборн",
    "name:sr": "Падерборн",
    "name:ur": "پادربورن",
    "place": "city",
    "population": "151633",
    "ref:LOCODE": "DEPAD",
    "website": "https://www.paderborn.de/",
    "wikidata": "Q2971",
    "wikipedia": "de:Paderborn"
  }
},
{
  "type": "node",
  "id": 240116263,
  "lat": 50.0012314,
  "lon": 8.2762513,
  "tags": {
    "capital": "4",
    "de:amtlicher_gemeindeschluessel": "07315000",
    "name": "Mainz",
    "name:ar": "ماينتس",
    "name:ca": "Magúncia",
    "name:cs": "Mohuč",
    "name:de": "Mainz",
    "name:en": "Mainz",
    "name:es": "Maguncia",
    "name:fr": "Mayence",
    "name:he": "מגנצא",
    "name:hsb": "Mohuč",
    "name:it": "Magonza",
    "name:ja": "マインツ",
    "name:la": "Mogontiacum",
    "name:lt": "Maincas",
    "name:pfl": "Meenz",
    "name:pl": "Moguncja",
    "name:ru": "Майнц",
    "name:sk": "Mohuč",
    "name:sr": "Мајнц",
    "name:uk": "Майнц",
    "name:zh": "美因茨",
    "name:zh-Hant": "美茵茨",
    "place": "city",
    "population": "209779",
    "ref:LOCODE": "DEMAI",
    "website": "https://www.mainz.de/",
    "wikidata": "Q1720",
    "wikipedia": "de:Mainz"
  }
},
{
  "type": "node",
  "id": 240120582,
  "lat": 49.0068705,
  "lon": 8.4034195,
  "tags": {
    "alt_name:ur": "کارلسروئے",
    "capital": "5",
    "de:amtlicher_gemeindeschluessel": "08212000",
    "ele": "114",
    "name": "Karlsruhe",
    "name:als": "Karlsrueh",
    "name:ar": "كارلسروه",
    "name:az": "Karlsruye",
    "name:bg": "Карлсруе",
    "name:cv": "Карлсруэ",
    "name:el": "Καρλσρούη",
    "name:fa": "کارلسروهه",
    "name:he": "קארלסרוהה",
    "name:ja": "カールスルーエ",
    "name:ka": "კარლსრუე",
    "name:ko": "카를스루에",
    "name:la": "Carolsruha",
    "name:lv": "Karlsrūe",
    "name:mk": "Карлсруе",
    "name:pfl": "Kallsruh",
    "name:ru": "Карлсруэ",
    "name:sr": "Карлсруе",
    "name:uk": "Карлсруе",
    "name:ur": "کالسروئے",
    "name:zh": "卡尔斯鲁厄",
    "name:zh-Hant": "卡爾斯魯厄",
    "place": "city",
    "population": "283959",
    "ref:LOCODE": "DEKAE",
    "wikidata": "Q1040"
  }
},
{
  "type": "node",
  "id": 240120926,
  "lat": 49.0195333,
  "lon": 12.0974869,
  "tags": {
    "alt_name:en": "Ratisbon",
    "alt_name:la": "Ratisbona",
    "de:amtlicher_gemeindeschluessel": "09362",
    "name": "Regensburg",
    "name:ar": "ريغنسبورغ",
    "name:bar": "Rengschburg",
    "name:ca": "Ratisbona",
    "name:cs": "Řezno",
    "name:de": "Regensburg",
    "name:el": "Ρατισβόνη",
    "name:en": "Regensburg",
    "name:es": "Ratisbona",
    "name:fr": "Ratisbonne",
    "name:hsb": "Rězno",
    "name:it": "Ratisbona",
    "name:la": "Castra Regina",
    "name:lt": "Rėgensburgas",
    "name:pl": "Ratyzbona",
    "name:prefix": "city",
    "name:pt": "Ratisbona",
    "name:ru": "Регенсбург",
    "name:sk": "Rezno",
    "name:sr": "Регензбург",
    "name:uk": "Регенсбург",
    "name:zh": "雷根斯堡",
    "name:zh-Hant": "雷根斯堡",
    "place": "city",
    "population": "145000",
    "ref:LOCODE": "DEREG",
    "short_name": "Rgbg",
    "wikidata": "Q2978",
    "wikipedia": "de:Regensburg"
  }
},
{
  "type": "node",
  "id": 240125892,
  "lat": 49.4704113,
  "lon": 8.4381568,
  "tags": {
    "alt_name": "Ludwigshafen",
    "de:amtlicher_gemeindeschluessel": "07314000",
    "is_in:country_code": "DE",
    "is_in:iso_3166_2": "DE-RP",
    "name": "Ludwigshafen am Rhein",
    "name:de": "Ludwigshafen am Rhein",
    "name:la": "Ludovici Portus Rhenanus",
    "name:pfl": "Ludwichshafe",
    "name:ru": "Людвигсхафен-на-Рейне",
    "name:sr": "Лудвигсхафен на Рајни",
    "name:zh": "路德维希港",
    "name:zh-Hans": "路德维希港",
    "name:zh-Hant": "路德維希港",
    "place": "city",
    "population": "163340",
    "ref:LOCODE": "DELUH",
    "wikidata": "Q2910",
    "wikipedia": "de:Ludwigshafen am Rhein"
  }
},
{
  "type": "node",
  "id": 240126753,
  "lat": 51.2254018,
  "lon": 6.7763137,
  "tags": {
    "capital": "4",
    "ele": "38",
    "int_name": "Dusseldorf",
    "loc_name": "D'Dorf",
    "name": "Düsseldorf",
    "name:ar": "دوسلدورف",
    "name:be": "Дзюсельдорф",
    "name:bg": "Дюселдорф",
    "name:de": "Düsseldorf",
    "name:el": "Δυσσελδόρφη",
    "name:en": "Dusseldorf",
    "name:eo": "Duseldorfo",
    "name:fr": "Düsseldorf",
    "name:ja": "デュッセルドルフ",
    "name:la": "Dusseldorpium",
    "name:lt": "Diuseldorfas",
    "name:mk": "Диселдорф",
    "name:ru": "Дюссельдорф",
    "name:sr": "Диселдорф",
    "name:tt": "Дүсселдорф",
    "name:uk": "Дюссельдорф",
    "name:ur": "ڈسلڈورف",
    "name:zh-Hans": "杜塞尔多夫",
    "name:zh-Hant": "杜塞道夫",
    "old_name:nl": "Dusseldorp",
    "openGeoDB:community_identification_number": "05111000",
    "openGeoDB:license_plate_code": "D",
    "openGeoDB:loc_id": "15879",
    "openGeoDB:postal_codes": "40213,40210,40211,40212,40215,40217,40219,40221,40223,40225,40227,40229,40231,40233,40235,40237,40239,40468,40470,40472,40474,40476,40477,40479,40489,40545,40547,40549,40589,40591,40593,40595,40597,40599,40625,40627,40629",
    "openGeoDB:telephone_area_code": "0211",
    "place": "city",
    "population": "618128",
    "ref:LOCODE": "DEDUS",
    "website": "https://www.duesseldorf.de",
    "wikidata": "Q1718",
    "wikipedia": "de:Düsseldorf"
  }
},
{
  "type": "node",
  "id": 273510436,
  "lat": 51.9625101,
  "lon": 7.6251879,
  "tags": {
    "name": "Münster",
    "name:ar": "مونستر",
    "name:ba": "Мюнстер",
    "name:be": "Мюнстэр",
    "name:bg": "Мюнстер",
    "name:cv": "Мюнстер",
    "name:de": "Münster",
    "name:el": "Μύνστερ",
    "name:es": "Münster",
    "name:fa": "مونستر",
    "name:fy": "Munster",
    "name:he": "מינסטר",
    "name:ja": "ミュンスター",
    "name:ka": "მიუნსტერი",
    "name:kk": "Мюнстер",
    "name:ko": "뮌스터",
    "name:la": "Monasterium",
    "name:lt": "Miunsteris",
    "name:lv": "Minstere",
    "name:mk": "Минстер",
    "name:mn": "Мюнстер",
    "name:nds": "Mönster",
    "name:nl": "Munster",
    "name:ru": "Мюнстер",
    "name:sr": "Минстер",
    "name:stq": "Munster",
    "name:tzl": "Muvaina",
    "name:uk": "Мюнстер",
    "name:ur": "منسٹر",
    "name:zh": "明斯特",
    "note": "Wohnberechtigte Bevölkerung am 31. Dezember 2021.",
    "old_name": "Mimigernaford",
    "old_name:es": "Muñiste",
    "place": "city",
    "population": "314332",
    "ref:LOCODE": "DEMSR",
    "wikidata": "Q2742",
    "wikipedia": "de:Münster"
  }
},
{
  "type": "node",
  "id": 277023297,
  "lat": 53.1389753,
  "lon": 8.2146017,
  "tags": {
    "alt_name": "Oldenburg (Oldenburg)",
    "ele": "4",
    "loc_name": "Oldenburg",
    "name": "Oldenburg",
    "name:ar": "أولدنبورغ",
    "name:az-Arab": "اولدنبورق",
    "name:azb": "اولدنبورق",
    "name:da": "Oldenborg",
    "name:de": "Oldenburg",
    "name:el": "Όλντενμπουργκ",
    "name:es": "Oldemburgo",
    "name:fr": "Oldenbourg",
    "name:fy": "Aldenboarch",
    "name:is": "Aldinborg",
    "name:ja": "オルデンブルク",
    "name:kk-Arab": "ولدەنبۋرگ",
    "name:la": "Oldenburgum",
    "name:nds": "Ollnborg",
    "name:pt": "Oldemburgo",
    "name:ru": "Ольденбург",
    "name:sr": "Олденбург",
    "name:ur": "اولڈینبرگ",
    "name:zh": "奥尔登堡",
    "official_name": "Oldenburg (Oldb)",
    "official_name:ar": "أولدنبورغ (أولدنبورغ)",
    "official_name:de": "Oldenburg (Oldb)",
    "official_name:es": "Oldemburgo (Oldemburgo)",
    "place": "city",
    "population": "163830",
    "ref:LOCODE": "DEOLO",
    "website": "https://www.oldenburg.de/",
    "wikidata": "Q2936",
    "wikipedia": "de:Oldenburg (Oldenburg)"
  }
},
{
  "type": "node",
  "id": 304997397,
  "lat": 51.9063997,
  "lon": 8.3782078,
  "tags": {
    "capital": "6",
    "ele": "75",
    "name": "Gütersloh",
    "name:de": "Gütersloh",
    "name:nds": "Gütsel",
    "name:ru": "Гютерсло",
    "place": "city",
    "population": "103603",
    "wikidata": "Q3771",
    "wikipedia": "de:Gütersloh"
  }
},
{
  "type": "node",
  "id": 660314734,
  "lat": 53.5505392,
  "lon": 8.5851945,
  "tags": {
    "ele": "2",
    "name": "Bremerhaven",
    "name:ar": "بريمرهافن",
    "name:be": "Брэмергафен",
    "name:cs": "Brémský Přístav",
    "name:de": "Bremerhaven",
    "name:fa": "برمرهافن",
    "name:ja": "ブレーマーハーフェン",
    "name:la": "Bremae Portus",
    "name:lt": "Brėmerhafenas",
    "name:lv": "Brēmerhāfene",
    "name:nds": "Bremerhoben",
    "name:prefix": "Stadt",
    "name:ru": "Бремерхафен",
    "name:sr": "Бремерхафен",
    "name:stq": "Bremerhoawen",
    "name:ur": "بریمیرحاوین",
    "name:zh": "不来梅哈芬",
    "old_name": "Wesermünde",
    "place": "city",
    "population": "117281",
    "ref:LOCODE": "DEBRV",
    "wikidata": "Q2706",
    "wikipedia": "de:Bremerhaven"
  }
},
{
  "type": "node",
  "id": 1530957491,
  "lat": 49.2343620,
  "lon": 6.9963790,
  "tags": {
    "capital": "4",
    "ele": "230",
    "int_name": "Saarbruecken",
    "is_in:iso_3166_2": "DE-SL",
    "loc_name": "Saabrigge",
    "name": "Saarbrücken",
    "name:ar": "ساربروكن",
    "name:de": "Saarbrücken",
    "name:fr": "Sarrebruck",
    "name:ja": "ザールブリュッケン",
    "name:ka": "ზაარბრიუკენი",
    "name:la": "Saravipons",
    "name:lb": "Saarbrécken",
    "name:lt": "Sarbriukenas",
    "name:pfl": "Saarbrigge",
    "name:ru": "Саарбрюккен",
    "name:sr": "Сарбрикен",
    "name:zh-Hans": "萨尔布吕肯",
    "name:zh-Hant": "薩爾布呂肯",
    "openGeoDB:community_identification_number": "10041100",
    "openGeoDB:license_plate_code": "SB",
    "openGeoDB:loc_id": "23458",
    "openGeoDB:postal_codes": "66111,66113,66115,66117,66119,66121,66123,66125,66126,66127,66128,66129,66130,66131,66132,66133",
    "openGeoDB:telephone_area_code": "0681",
    "openGeoDB:type": "Landeshauptstadt",
    "place": "city",
    "population": "177201",
    "ref:LOCODE": "DESCN",
    "wikidata": "Q32722322",
    "wikipedia": "ceb:Saarbrücken"
  }
},
{
  "type": "node",
  "id": 1559853166,
  "lat": 48.3668041,
  "lon": 10.8986971,
  "tags": {
    "is_in:country_code": "DE",
    "is_in:iso_3166_2": "DE-BY",
    "name": "Augsburg",
    "name:als": "Augschburg",
    "name:ar": "أوغسبورغ",
    "name:bar": "Augschburg",
    "name:br": "Augsburg",
    "name:cs": "Augšpurk",
    "name:de": "Augsburg",
    "name:en": "Augsburg",
    "name:es": "Augsburgo",
    "name:eu": "Augsburg",
    "name:fa": "اوگسبورگ",
    "name:fr": "Augsbourg",
    "name:hy": "Աուգսբուրգ",
    "name:it": "Augusta",
    "name:ja": "アウクスブルク",
    "name:ka": "აუგსბურგი",
    "name:la": "Augusta Vindelicorum",
    "name:lv": "Augsburga",
    "name:ru": "Аугсбург",
    "name:sr": "Аугзбург",
    "name:th": "เอาก์สบูร์ก",
    "name:tr": "Augsburg",
    "name:uk": "Аугсбург",
    "name:zh": "奥格斯堡",
    "name:zh-Hant": "奧格斯堡",
    "old_name:hu": "Ágosta",
    "place": "city",
    "population": "293415",
    "ref:LOCODE": "DEAGB",
    "website": "https://www.augsburg.de/",
    "wikidata": "Q2749",
    "wikipedia": "de:Augsburg"
  }
},
{
  "type": "node",
  "id": 1569338041,
  "lat": 49.4538720,
  "lon": 11.0772980,
  "tags": {
    "alt_name:gl": "Nuremberga",
    "capital": "5",
    "ele": "309",
    "loc_name": "Nämberch",
    "name": "Nürnberg",
    "name:ar": "نورنبرغ",
    "name:be": "Нюрнберг",
    "name:ca": "Nuremberg",
    "name:cs": "Norimberk",
    "name:de": "Nürnberg",
    "name:dsb": "Nürnberg",
    "name:el": "Νυρεμβέργη",
    "name:en": "Nuremberg",
    "name:es": "Núremberg",
    "name:eu": "Nurenberg",
    "name:fa": "نورنبرگ",
    "name:fr": "Nuremberg",
    "name:gl": "Nürnberg",
    "name:he": "נירנברג",
    "name:hr": "Nürnberg",
    "name:hsb": "Nürnberg",
    "name:hy": "Նյուրնբերգ",
    "name:it": "Norimberga",
    "name:ja": "ニュルンベルク",
    "name:ka": "ნიურნბერგი",
    "name:la": "Norimberga",
    "name:lt": "Niurnbergas",
    "name:lv": "Nirnberga",
    "name:mk": "Нирнберг",
    "name:nds": "Nürnbarg",
    "name:nl": "Neurenberg",
    "name:pl": "Norymberga",
    "name:pt": "Nuremberga",
    "name:ru": "Нюрнберг",
    "name:sk": "Norimberg",
    "name:sr": "Нирнберг",
    "name:th": "เนือร์นแบร์ก",
    "name:tt": "Нүрнберг",
    "name:uk": "Нюрнберг",
    "name:ur": "نورنبرگ",
    "name:zh": "纽伦堡",
    "name:zh-Hans": "纽伦堡",
    "name:zh-Hant": "紐倫堡",
    "place": "city",
    "population": "518370",
    "ref:LOCODE": "DENUE",
    "source:population": "Nürnberg in Zahlen 2016 (Mai 2016)",
    "website": "https://www.nuernberg.de/",
    "wikidata": "Q2090",
    "wikipedia": "de:Nürnberg"
  }
},
{
  "type": "node",
  "id": 1575668118,
  "lat": 51.4272925,
  "lon": 6.8829192,
  "tags": {
    "alt_name:mk": "Милхајм",
    "ele": "40",
    "name": "Mülheim an der Ruhr",
    "name:ar": "مولهايم على الرور",
    "name:de": "Mülheim an der Ruhr",
    "name:la": "Mulhemium ad Ruram",
    "name:mk": "Милхајм на Рур",
    "name:nds": "Mölm",
    "name:ru": "Мюльхайм",
    "name:sr": "Милхајм на Руру",
    "name:uk": "Мюльхайм ан дер Рур",
    "name:zh-Hans": "米尔海姆",
    "name:zh-Hant": "魯爾河畔米爾海姆",
    "place": "city",
    "population": "167108",
    "ref:LOCODE": "DEMUH",
    "website": "https://www.muelheim-ruhr.de/",
    "wikidata": "Q2899",
    "wikipedia": "de:Mülheim an der Ruhr"
  }
},
{
  "type": "node",
  "id": 1583294719,
  "lat": 51.3154546,
  "lon": 9.4924096,
  "tags": {
    "alt_name:la": "Castellum Hassiae",
    "ele": "167",
    "is_in:country_code": "DE",
    "name": "Kassel",
    "name:ar": "كاسل",
    "name:bg": "Касел",
    "name:de": "Kassel",
    "name:el": "Κάσσελ",
    "name:en": "Kassel",
    "name:eo": "Kaselo",
    "name:es": "Cassel",
    "name:fa": "کاسل",
    "name:fr": "Cassel",
    "name:he": "קאסל",
    "name:ja": "カッセル",
    "name:kk": "Кассель",
    "name:ko": "카셀",
    "name:la": "Cassala",
    "name:lt": "Kaselis",
    "name:lv": "Kasele",
    "name:mk": "Касел",
    "name:pnb": "کیسل",
    "name:ru": "Кассель",
    "name:sq": "Kaseli",
    "name:sr": "Касел",
    "name:th": "คัสเซิล",
    "name:uk": "Кассель",
    "name:zh": "卡塞尔",
    "old_name": "Cassel",
    "place": "city",
    "population": "204021",
    "ref:LOCODE": "DEKAS",
    "source:old_name": "https://de.wikipedia.org/wiki/Kassel",
    "website": "https://www.kassel.de/",
    "wikidata": "Q2865"
  }
},
{
  "type": "node",
  "id": 1602111978,
  "lat": 49.4772475,
  "lon": 10.9893626,
  "tags": {
    "ele": "294",
    "name": "Fürth",
    "name:ar": "فورت",
    "name:de": "Fürth",
    "name:fa": "فورت",
    "name:ru": "Фюрт",
    "name:sr": "Фирт",
    "name:uk": "Фюрт",
    "name:ur": "فورت",
    "name:zh-Hans": "菲尔特",
    "name:zh-Hant": "菲爾特",
    "openGeoDB:community_identification_number": "09563",
    "openGeoDB:is_in_loc_id": "164",
    "openGeoDB:layer": "5",
    "openGeoDB:license_plate_code": "FÜ",
    "openGeoDB:loc_id": "612",
    "place": "city",
    "population": "125403",
    "ref:LOCODE": "DEFUE",
    "reg_name": "Färdd",
    "website": "https://www.fuerth.de/",
    "wikidata": "Q3075",
    "wikipedia": "de:Fürth"
  }
},
{
  "type": "node",
  "id": 1613672847,
  "lat": 51.4696137,
  "lon": 6.8514435,
  "tags": {
    "alt_name:nds": "Owerhuusen",
    "ele": "35",
    "name": "Oberhausen",
    "name:ar": "أوبرهوزن",
    "name:de": "Oberhausen",
    "name:ja": "オーバーハウゼン",
    "name:la": "Overhusa",
    "name:nds": "Overhus",
    "name:ru": "Оберхаузен",
    "name:sr": "Оберхаузен",
    "name:zh-Hans": "奥伯豪森",
    "name:zh-Hant": "奥伯豪森",
    "openGeoDB:community_identification_number": "05119",
    "openGeoDB:license_plate_code": "OB",
    "openGeoDB:loc_id": "617",
    "place": "city",
    "population": "209292",
    "ref:LOCODE": "DEOBE",
    "wikidata": "Q2838"
  }
},
{
  "type": "node",
  "id": 1628927045,
  "lat": 51.7567447,
  "lon": 14.3357307,
  "tags": {
    "alt_name:dsb": "Chóšobuz",
    "ele": "75",
    "name": "Cottbus - Chóśebuz",
    "name:ar": "كتبوس",
    "name:cs": "Chotěbuz",
    "name:de": "Cottbus",
    "name:dsb": "Chóśebuz",
    "name:fa": "کتبوس",
    "name:fr": "Cottbus",
    "name:hsb": "Choćebuz",
    "name:ja": "コトブス",
    "name:lt": "Kotbusas",
    "name:nl": "Cottbus",
    "name:pl": "Chociebuż",
    "name:ru": "Котбус",
    "name:sk": "Chotebuz",
    "name:sr": "Котбус",
    "name:ur": "کتبوس",
    "place": "city",
    "population": "98693",
    "population:date": "2020-12-31",
    "wikidata": "Q3214",
    "wikipedia": "de:Cottbus"
  }
},
{
  "type": "node",
  "id": 1651888734,
  "lat": 52.3744779,
  "lon": 9.7385532,
  "tags": {
    "capital": "4",
    "name": "Hannover",
    "name:am": "Հաննովեր",
    "name:ar": "هانوفر",
    "name:az-Arab": "هانوفر",
    "name:azb": "هانوفر",
    "name:be": "Гановер",
    "name:bg": "Хановер",
    "name:bn": "হানোফার",
    "name:ce": "Хановер",
    "name:ckb": "هانۆڤەر",
    "name:de": "Hannover",
    "name:el": "Αννόβερο",
    "name:en": "Hanover",
    "name:eo": "Hanovro",
    "name:es": "Hanóver",
    "name:fa": "هانوفر",
    "name:fr": "Hanovre",
    "name:gd": "Hànobhar",
    "name:gl": "Hannóver",
    "name:he": "הנובר",
    "name:hy": "Հաննովեր",
    "name:hyw": "Հաննովեր",
    "name:ja": "ハノーファー",
    "name:ka": "ჰანოვერი",
    "name:kk": "Ганновер",
    "name:kk-Arab": "گاننوۆەر",
    "name:ko": "하노버",
    "name:la": "Hannovera",
    "name:lt": "Hanoveris",
    "name:lv": "Hannovere",
    "name:mk": "Хановер",
    "name:mn": "Ханновер",
    "name:mr": "हानोफर",
    "name:ms": "Hanover",
    "name:nds": "Hannober",
    "name:nl": "Hannover",
    "name:os": "Ганновер",
    "name:pa": "ਹੈਨੋਫ਼ਾ",
    "name:pl": "Hanower",
    "name:prefix": "Landeshauptstadt",
    "name:ps": "هانوفر",
    "name:pt": "Hanôver",
    "name:ro": "Hanovra",
    "name:ru": "Ганновер",
    "name:sq": "Hanoveri",
    "name:sr": "Хановер",
    "name:szl": "Hanŏwry",
    "name:th": "ฮันโนเวอร์",
    "name:tt": "Һанновер",
    "name:ug": "Hanofér",
    "name:uk": "Ганновер",
    "name:ur": "ہانوور",
    "name:xh": "IHanoveri",
    "name:yi": "האנאווער",
    "name:yo": "Hanover",
    "name:zh": "汉诺威",
    "name:zh-Hant": "漢諾威",
    "place": "city",
    "population": "525875",
    "ref:LOCODE": "DEHAJ",
    "reg_name": "Hannover",
    "wikidata": "Q1715",
    "wikipedia": "de:Hannover"
  }
},
{
  "type": "node",
  "id": 1651889631,
  "lat": 51.0324743,
  "lon": 6.9881194,
  "tags": {
    "ele": "60",
    "name": "Leverkusen",
    "name:ar": "ليفركوزن",
    "name:be": "Леверкузен",
    "name:bg": "Леверкузен",
    "name:de": "Leverkusen",
    "name:el": "Λεβερκούζεν",
    "name:en": "Leverkusen",
    "name:es": "Leverkusen",
    "name:fa": "لورکوزن",
    "name:fr": "Leverkusen",
    "name:he": "לברקוזן",
    "name:it": "Leverkusen",
    "name:ja": "レーヴァークーゼン",
    "name:ko": "레버쿠젠",
    "name:nl": "Leverkusen",
    "name:pl": "Leverkusen",
    "name:ru": "Леверкузен",
    "name:sr": "Леверкузен",
    "name:tr": "Leverkusen",
    "name:uk": "Леверкузен",
    "name:zh": "勒沃库森",
    "name:zh-Hant": "勒沃庫森",
    "note": "Position des place-nodes schwierig, da kein echtes Zentrum vorhanden",
    "openGeoDB:community_identification_number": "05316",
    "openGeoDB:license_plate_code": "LEV",
    "openGeoDB:loc_id": "421",
    "openGeoDB:postal_codes": "51373,51371,51375,51377,51379,51381",
    "openGeoDB:telephone_area_code": "0214",
    "place": "city",
    "population": "160819",
    "ref:LOCODE": "DELEV",
    "website": "https://www.leverkusen.de/",
    "wikidata": "Q2938",
    "wikipedia": "de:Leverkusen"
  }
},
{
  "type": "node",
  "id": 1667005776,
  "lat": 51.4825041,
  "lon": 11.9705452,
  "tags": {
    "de:amtlicher_gemeindeschluessel": "15002000",
    "ele": "88",
    "name": "Halle (Saale)",
    "name:af": "Halle",
    "name:ar": "هاله",
    "name:az-Arab": "هاله",
    "name:azb": "هاله",
    "name:de": "Halle (Saale)",
    "name:el": "Χάλλε",
    "name:eo": "Halle ĉe Saale",
    "name:es": "Halle",
    "name:fa": "هاله",
    "name:fr": "Halle-sur-Saale",
    "name:hsb": "Hala nad Solawu",
    "name:hy": "Հալլե",
    "name:la": "Salinae Saxonicae",
    "name:ps": "هاله",
    "name:ru": "Галле",
    "name:sr": "Хале",
    "official_name": "Halle (Saale)",
    "official_name:de": "Halle (Saale)",
    "official_name:fr": "Halle-sur-Saale",
    "place": "city",
    "population": "231565",
    "ref:LOCODE": "DEHAL",
    "short_name": "Halle",
    "short_name:de": "Halle",
    "short_name:fr": "Halle",
    "short_name:hsb": "Hala",
    "wikidata": "Q2814",
    "wikipedia": "de:Halle (Saale)"
  }
},
{
  "type": "node",
  "id": 1674026139,
  "lat": 48.7784485,
  "lon": 9.1800132,
  "tags": {
    "alt_name:cs": "Štukart;Štokart",
    "alt_name:ur": "شٹٹگارٹ",
    "capital": "4",
    "de:amtlicher_gemeindeschluessel": "08111",
    "ele": "247",
    "name": "Stuttgart",
    "name:ar": "شتوتغارت",
    "name:cs": "Štíhrad",
    "name:de": "Stuttgart",
    "name:el": "Στουτγκάρδη",
    "name:en": "Stuttgart",
    "name:eo": "Ŝtutgarto",
    "name:fr": "Stuttgart",
    "name:gsw": "Stuegert",
    "name:it": "Stoccarda",
    "name:ja": "シュトゥットガルト",
    "name:ko": "슈투트가르트",
    "name:la": "Stutgardia",
    "name:lt": "Štutgartas",
    "name:lv": "Štutgarte",
    "name:mk": "Штутгарт",
    "name:pfl": "Schduggad",
    "name:pt": "Estugarda",
    "name:ru": "Штутгарт",
    "name:sr": "Штутгарт",
    "name:swg": "Schtugert",
    "name:th": "ชตุทท์การ์ท",
    "name:uk": "Штутгарт",
    "name:ur": "شٹٹ گارٹ",
    "name:zh": "斯图加特",
    "name:zh-Hant": "斯圖加特",
    "old_name:fr": "Stutgard",
    "place": "city",
    "population": "613392",
    "ref:LOCODE": "DESTR",
    "website": "https://www.stuttgart.de/",
    "wikidata": "Q1022",
    "wikipedia": "de:Stuttgart"
  }
},
{
  "type": "node",
  "id": 1674619101,
  "lat": 51.5328328,
  "lon": 9.9351811,
  "tags": {
    "name": "Göttingen",
    "name:ar": "غوتينغن",
    "name:de": "Göttingen",
    "name:el": "Γοττίγγη",
    "name:eo": "Gotingeno",
    "name:es": "Gotinga",
    "name:fa": "گوتینگن",
    "name:fr": "Gœttingue",
    "name:it": "Gottinga",
    "name:ja": "ゲッティンゲン",
    "name:la": "Gottinga",
    "name:lt": "Gėtingenas",
    "name:nds": "Chöttingen",
    "name:pl": "Getynga",
    "name:ru": "Гёттинген",
    "name:sr": "Гетинген",
    "place": "city",
    "population": "131436",
    "population:date": "2020-12-31",
    "population:note": "131k (mit Nebenwohnsitzenden), 118k (ohne)",
    "ref:LOCODE": "DEGOE",
    "start_date": "953",
    "wikidata": "Q3033",
    "wikipedia": "de:Göttingen"
  }
},
{
  "type": "node",
  "id": 1675861081,
  "lat": 50.1328810,
  "lon": 8.9169797,
  "tags": {
    "name": "Hanau",
    "name:ar": "هانو",
    "name:azb": "هانو",
    "name:de": "Hanau",
    "name:fa": "هانو",
    "place": "city",
    "population": "101364",
    "population:date": "2022-12-31",
    "source:population": "wikipedia",
    "wikidata": "Q3802",
    "wikipedia": "de:Hanau"
  }
},
{
  "type": "node",
  "id": 1684321651,
  "lat": 54.0886707,
  "lon": 12.1400211,
  "tags": {
    "admin_level": "6",
    "alt_name:la": "Rostochiensis;Rhodopolis",
    "alt_name:pl": "Roztok;Rostok",
    "is_in:country_code": "DE",
    "is_in:iso_3166_2": "DE-MV",
    "name": "Rostock",
    "name:ar": "روستوك",
    "name:cs": "Roztoky",
    "name:de": "Rostock",
    "name:eo": "Rostoko",
    "name:fa": "روستوک",
    "name:hsb": "Roztok",
    "name:ja": "ロストック",
    "name:la": "Rostochium",
    "name:lt": "Rostokas",
    "name:lv": "Rostoka",
    "name:nds": "Rostock",
    "name:pl": "Roztoka",
    "name:pox": "Răstoku",
    "name:ru": "Росток",
    "name:sk": "Rostok",
    "name:sr": "Росток",
    "name:ur": "روستوک",
    "name:zh": "罗斯托克",
    "nickname": "Hansestadt",
    "nickname:af": "Hansestad",
    "nickname:an": "Ciudat Hanseatica",
    "nickname:ar": "مدينة الهانزية",
    "nickname:ast": "Ciudá Hanseática",
    "nickname:az": "Hanzey şəhəri",
    "nickname:bar": "Hansestod",
    "nickname:be": "Ганзейскі горад",
    "nickname:be-tarask": "Ганзейскі горад",
    "nickname:ca": "ciutat hanseàtica",
    "nickname:cs": "hanzovní město",
    "nickname:da": "Hansestad",
    "nickname:de": "Hansestadt",
    "nickname:en": "Hanseatic city",
    "nickname:eo": "Hanso-urbo",
    "nickname:es": "ciudad hanseática",
    "nickname:et": "hansalinn",
    "nickname:eu": "Hansar Hiria",
    "nickname:fr": "ville hanséatique",
    "nickname:frr": "Hansestääd",
    "nickname:fy": "Hânzestêd",
    "nickname:gl": "Cidade Hanseática",
    "nickname:hsb": "hansowe město",
    "nickname:hu": "Hanza-város",
    "nickname:id": "Kota Hanseatik",
    "nickname:it": "città anseatica",
    "nickname:ja": "ハンザ都市",
    "nickname:jv": "Kota Hanseatik",
    "nickname:la": "urbs Hanseatica",
    "nickname:lb": "Hansestad",
    "nickname:lt": "Hanzos sąjungos miestas",
    "nickname:lv": "hanzas pilsēta",
    "nickname:mk": "Ханзин град",
    "nickname:nds": "Hansestadt",
    "nickname:nds-nl": "Hanzestad",
    "nickname:nl": "Hanzestad",
    "nickname:no": "Hansabyen",
    "nickname:pt": "Cidade Hanseática",
    "nickname:ro": "Oraș al Hansei",
    "nickname:ru": "Ганзе́йский го́род",
    "nickname:sc": "Tzitade Anseàtica",
    "nickname:sco": "Hanseatic ceety",
    "nickname:sk": "hanzové mesto",
    "nickname:sl": "hanzeatsko mesto",
    "nickname:th": "นครฮันเซอแห่ง",
    "nickname:vec": "sità anseatica",
    "nickname:vi": "thành phố Hanse",
    "nickname:yue": "漢莎城市",
    "nickname:zh": "汉萨同盟城市",
    "official_name": "Hanse- und Universitätsstadt Rostock",
    "official_name:af": "Hansestad Rostock",
    "official_name:ar": "مدينة روستوك الهانزية",
    "official_name:de": "Hanse- und Universitätsstadt Rostock",
    "official_name:lv": "Hanzas pilsēta Rostoka",
    "official_name:nds": "Hansestadt Rostock",
    "official_name:ru": "Ганзе́йский го́род Ро́сток",
    "official_name:sl": "Hanzeatsko mesto Rostock",
    "official_name:vi": "Thành phố Hanse Rostock",
    "official_name:zh": "汉萨城市罗斯托克",
    "openGeoDB:community_identification_number": "13003000",
    "openGeoDB:license_plate_code": "HRO",
    "openGeoDB:loc_id": "23328",
    "openGeoDB:postal_codes": "18055,18057,18059,18069,18106,18107,18109,18119,18146,18147,18182",
    "openGeoDB:telephone_area_code": "0381",
    "openGeoDB:type": "Hansestadt",
    "place": "city",
    "population": "207830",
    "ref:LOCODE": "DERSK",
    "survey:date:population": "2017-06-30",
    "website": "https://www.rostock.de/",
    "wikidata": "Q2861",
    "wikipedia": "en:Rostock"
  }
},
{
  "type": "node",
  "id": 1695218178,
  "lat": 52.4009309,
  "lon": 13.0591397,
  "tags": {
    "capital": "4",
    "ele": "32",
    "name": "Potsdam",
    "name:ar": "بوتسدام",
    "name:be": "Патсда́м",
    "name:bg": "Потсдам",
    "name:ce": "Потсдам",
    "name:ckb": "پۆتسدام",
    "name:cs": "Postupim",
    "name:de": "Potsdam",
    "name:dsb": "Podstupim",
    "name:el": "Πότσδαμ",
    "name:eo": "Pocdamo",
    "name:fa": "پوتسدام",
    "name:he": "פוטסדאם",
    "name:hi": "पॉट्सडैम",
    "name:hsb": "Podstupim",
    "name:ja": "ポツダム",
    "name:ka": "პოტსდამი",
    "name:kk": "Потсдам",
    "name:ko": "포츠담",
    "name:la": "Potestampium",
    "name:lt": "Potsdamas",
    "name:lv": "Potsdama",
    "name:mk": "Потсдам",
    "name:os": "Потсдам",
    "name:pl": "Poczdam",
    "name:pnb": "پوٹسڈیم",
    "name:ru": "Потсдам",
    "name:sk": "Postupim",
    "name:sq": "Pocdami",
    "name:sr": "Потсдам",
    "name:szl": "Poctam",
    "name:th": "พอทสดัม",
    "name:uk": "Потсдам",
    "name:ur": "پاٹسڈیم",
    "name:zh": "波茨坦",
    "name:zh-Hans": "波茨坦",
    "name:zh-Hant": "波茨坦",
    "place": "city",
    "population": "178089",
    "ref:LOCODE": "DEPOT",
    "wikidata": "Q1711",
    "wikipedia": "de:Potsdam"
  }
},
{
  "type": "node",
  "id": 1699831958,
  "lat": 48.3974003,
  "lon": 9.9934336,
  "tags": {
    "name": "Ulm",
    "name:ar": "أولم",
    "name:de": "Ulm",
    "name:dsb": "Ulm",
    "name:en": "Ulm",
    "name:fr": "Ulm",
    "name:hy": "Ուլմ",
    "name:it": "Ulmo",
    "name:ja": "ウルム",
    "name:ka": "ულმი",
    "name:la": "Ulma",
    "name:ru": "Ульм",
    "name:sr": "Улм",
    "name:uk": "Ульм",
    "name:zh": "乌尔姆",
    "name:zh-Hant": "烏爾姆",
    "place": "city",
    "population": "121648",
    "ref:LOCODE": "DEULM",
    "website": "http://www.ulm.de/ulm/",
    "wikidata": "Q3012",
    "wikimedia_commons": "Category:Ulm",
    "wikipedia": "de:Ulm"
  }
},
{
  "type": "node",
  "id": 1700534808,
  "lat": 48.1371079,
  "lon": 11.5753822,
  "tags": {
    "alt_name:la": "Monachium;Monachum",
    "capital": "4",
    "ele": "519",
    "int_name": "Munich",
    "name": "München",
    "name:als": "Münche",
    "name:ar": "ميونخ",
    "name:az": "Münhen",
    "name:bar": "Minga",
    "name:be": "Мюнхен",
    "name:be-tarask": "Мюнхэн",
    "name:bg": "Мюнхен",
    "name:br": "München",
    "name:ca": "Munic",
    "name:cs": "Mnichov",
    "name:da": "München",
    "name:de": "München",
    "name:dsb": "München",
    "name:el": "Μόναχο",
    "name:en": "Munich",
    "name:eo": "Munkeno",
    "name:es": "Múnich",
    "name:eu": "Munich",
    "name:fa": "مونیخ",
    "name:fi": "München",
    "name:fr": "Munich",
    "name:gl": "Múnic",
    "name:he": "מינכן",
    "name:hi": "म्यूनिख",
    "name:hr": "München",
    "name:hsb": "Mnichow",
    "name:hy": "Մյունխեն",
    "name:it": "Monaco di Baviera",
    "name:ja": "ミュンヘン",
    "name:ka": "მიუნხენი",
    "name:kk": "Мюнхен",
    "name:kn": "ಮುನಿಕ್",
    "name:ko": "뮌헨",
    "name:la": "Monacum",
    "name:lt": "Miunchenas",
    "name:lv": "Minhene",
    "name:mk": "Минхен",
    "name:nl": "München",
    "name:oc": "Munic",
    "name:pl": "Monachium",
    "name:pt": "Munique",
    "name:ru": "Мюнхен",
    "name:sh": "München",
    "name:sk": "Mníchov",
    "name:sr": "Минхен",
    "name:tr": "Münih",
    "name:tt": "Мүнхен",
    "name:uk": "Мюнхен",
    "name:ur": "میونخ",
    "name:uz": "Munhen",
    "name:vi": "München",
    "name:zh": "慕尼黑",
    "name:zh-Hant": "慕尼黑",
    "openGeoDB:community_identification_number": "09162",
    "openGeoDB:license_plate_code": "M",
    "openGeoDB:loc_id": "212",
    "openGeoDB:telephone_area_code": "089",
    "openGeoDB:type": "Landeshauptstadt",
    "phone": "+49 89 115",
    "place": "city",
    "population": "1484226",
    "ref:LOCODE": "DEMUC",
    "source:name:oc": "Lo Congrès",
    "source:population": "https://www.statistik.bayern.de/mam/produkte/veroffentlichungen/statistische_berichte/a1200c_201944.xla",
    "website": "https://www.muenchen.de/",
    "wikidata": "Q1726",
    "wikipedia": "de:München"
  }
},
{
  "type": "node",
  "id": 2069498986,
  "lat": 51.6804093,
  "lon": 7.8151970,
  "tags": {
    "ele": "63",
    "name": "Hamm",
    "name:ar": "هام",
    "name:de": "Hamm",
    "name:fa": "هام",
    "name:hu": "Hamm",
    "name:la": "Hammona",
    "name:ru": "Хамм",
    "name:ur": "ہم",
    "place": "city",
    "population": "176048",
    "ref:LOCODE": "DEHMM",
    "wikidata": "Q2880"
  }
},
{
  "type": "node",
  "id": 2110382406,
  "lat": 48.7630165,
  "lon": 11.4250395,
  "tags": {
    "de:amtlicher_gemeindeschluessel": "09161000",
    "ele": "374",
    "name": "Ingolstadt",
    "name:ar": "إنغولشتات",
    "name:bar": "Inglstood",
    "name:de": "Ingolstadt",
    "name:el": "Ίνγκολστατ",
    "name:he": "אינגולשטאט",
    "name:hu": "Ingolstadt",
    "name:ja": "インゴルシュタット",
    "name:la": "Ingolstadium",
    "name:ru": "Ингольштадт",
    "name:sr": "Инголштат",
    "population": "127886",
    "ref:LOCODE": "DEING",
    "website": "https://www.ingolstadt.de/",
    "wikidata": "Q3004",
    "wikipedia": "de:Ingolstadt"
  }
}

  ]
}
